[{"province":"北京市","cities":[{"city":"北京市","districts":[{"district":"昌平区","zipcode":"100000"},{"district":"朝阳区","zipcode":"100000"},{"district":"崇文区","zipcode":"100000"},{"district":"大兴区","zipcode":"100000"},{"district":"东城区","zipcode":"100000"},{"district":"房山区","zipcode":"100000"},{"district":"丰台区","zipcode":"100000"},{"district":"海淀区","zipcode":"100000"},{"district":"怀柔区","zipcode":"100000"},{"district":"门头沟区","zipcode":"100000"},{"district":"密云县","zipcode":"100000"},{"district":"平谷区","zipcode":"100000"},{"district":"石景山区","zipcode":"100000"},{"district":"顺义区","zipcode":"100000"},{"district":"通州区","zipcode":"100000"},{"district":"西城区","zipcode":"100000"},{"district":"宣武区","zipcode":"100000"},{"district":"延庆县","zipcode":"100000"},{"district":"其他区","zipcode":"100000"}]}]},{"province":"天津市","cities":[{"city":"天津市","districts":[{"district":"宝坻区","zipcode":"300000"},{"district":"北辰区","zipcode":"300000"},{"district":"大港区","zipcode":"300000"},{"district":"东丽区","zipcode":"300000"},{"district":"汉沽区","zipcode":"300000"},{"district":"和平区","zipcode":"300000"},{"district":"河北区","zipcode":"300000"},{"district":"河东区","zipcode":"300000"},{"district":"河西区","zipcode":"300000"},{"district":"红桥区","zipcode":"300000"},{"district":"蓟县","zipcode":"300000"},{"district":"津南区","zipcode":"300000"},{"district":"静海县","zipcode":"300000"},{"district":"南开区","zipcode":"300000"},{"district":"宁河县","zipcode":"300000"},{"district":"塘沽区","zipcode":"300000"},{"district":"武清区","zipcode":"300000"},{"district":"西青区","zipcode":"300000"},{"district":"其他区","zipcode":"300000"}]}]},{"province":"上海市","cities":[{"city":"上海市","districts":[{"district":"宝山区","zipcode":"200000"},{"district":"长宁区","zipcode":"200000"},{"district":"崇明县","zipcode":"200000"},{"district":"奉贤区","zipcode":"200000"},{"district":"虹口区","zipcode":"200000"},{"district":"黄浦区","zipcode":"200000"},{"district":"嘉定区","zipcode":"200000"},{"district":"金山区","zipcode":"200000"},{"district":"静安区","zipcode":"200000"},{"district":"卢湾区","zipcode":"200000"},{"district":"闵行区","zipcode":"200000"},{"district":"南汇区","zipcode":"200000"},{"district":"浦东新区","zipcode":"200000"},{"district":"普陀区","zipcode":"200000"},{"district":"青浦区","zipcode":"200000"},{"district":"松江区","zipcode":"200000"},{"district":"徐汇区","zipcode":"200000"},{"district":"杨浦区","zipcode":"200000"},{"district":"闸北区","zipcode":"200000"},{"district":"其他区","zipcode":"200000"}]}]},{"province":"重庆市","cities":[{"city":"重庆市","districts":[{"district":"巴南区","zipcode":"404100"},{"district":"北碚区","zipcode":"404100"},{"district":"璧山县","zipcode":"404100"},{"district":"长寿区","zipcode":"404100"},{"district":"城口县","zipcode":"404100"},{"district":"大渡口区","zipcode":"404100"},{"district":"大足县","zipcode":"404100"},{"district":"垫江县","zipcode":"404100"},{"district":"丰都县","zipcode":"404100"},{"district":"奉节县","zipcode":"404100"},{"district":"涪陵区","zipcode":"404100"},{"district":"合川区","zipcode":"404100"},{"district":"江北区","zipcode":"404100"},{"district":"江津区","zipcode":"404100"},{"district":"九龙坡区","zipcode":"404100"},{"district":"开县","zipcode":"404100"},{"district":"梁平县","zipcode":"404100"},{"district":"南岸区","zipcode":"404100"},{"district":"南川区","zipcode":"404100"},{"district":"彭水苗族土家族自治县","zipcode":"404100"},{"district":"綦江县","zipcode":"404100"},{"district":"黔江区","zipcode":"404100"},{"district":"荣昌县","zipcode":"404100"},{"district":"沙坪坝区","zipcode":"404100"},{"district":"石柱土家族自治县","zipcode":"404100"},{"district":"双桥区","zipcode":"404100"},{"district":"铜梁县","zipcode":"404100"},{"district":"潼南县","zipcode":"404100"},{"district":"万盛区","zipcode":"404100"},{"district":"万州区","zipcode":"404100"},{"district":"巫山县","zipcode":"404100"},{"district":"巫溪县","zipcode":"404100"},{"district":"武隆县","zipcode":"404100"},{"district":"秀山土家族苗族自治县","zipcode":"404100"},{"district":"永川区","zipcode":"404100"},{"district":"酉阳土家族苗族自治县","zipcode":"404100"},{"district":"渝北区","zipcode":"404100"},{"district":"渝中区","zipcode":"404100"},{"district":"云阳县","zipcode":"404100"},{"district":"忠县","zipcode":"404100"},{"district":"其他区","zipcode":"404100"}]}]},{"province":"安徽省","cities":[{"city":"安庆市","districts":[{"district":"枞阳县","zipcode":"246000"},{"district":"大观区","zipcode":"246000"},{"district":"怀宁县","zipcode":"246000"},{"district":"潜山县","zipcode":"246000"},{"district":"宿松县","zipcode":"246000"},{"district":"太湖县","zipcode":"246000"},{"district":"桐城市","zipcode":"246000"},{"district":"望江县","zipcode":"246000"},{"district":"宜秀区","zipcode":"246000"},{"district":"迎江区","zipcode":"246000"},{"district":"岳西县","zipcode":"246000"},{"district":"其他区","zipcode":"246000"}]},{"city":"蚌埠市","districts":[{"district":"蚌山区","zipcode":"233000"},{"district":"固镇县","zipcode":"233000"},{"district":"怀远县","zipcode":"233000"},{"district":"淮上区","zipcode":"233000"},{"district":"龙子湖区","zipcode":"233000"},{"district":"五河县","zipcode":"233000"},{"district":"禹会区","zipcode":"233000"},{"district":"其他区","zipcode":"233000"}]},{"city":"亳州市","districts":[{"district":"利辛县","zipcode":"236000"},{"district":"蒙城县","zipcode":"236000"},{"district":"谯城区","zipcode":"236000"},{"district":"涡阳县","zipcode":"236000"},{"district":"其他区","zipcode":"236000"}]},{"city":"巢湖市","districts":[{"district":"含山县","zipcode":"238000"},{"district":"和县","zipcode":"238000"},{"district":"居巢区","zipcode":"238000"},{"district":"庐江县","zipcode":"238000"},{"district":"无为县","zipcode":"238000"},{"district":"其他区","zipcode":"238000"}]},{"city":"池州市","districts":[{"district":"东至县","zipcode":"247100"},{"district":"贵池区","zipcode":"247100"},{"district":"青阳县","zipcode":"247100"},{"district":"石台县","zipcode":"247100"},{"district":"其他区","zipcode":"247100"}]},{"city":"滁州市","districts":[{"district":"定远县","zipcode":"239000"},{"district":"凤阳县","zipcode":"239000"},{"district":"来安县","zipcode":"239000"},{"district":"琅琊区","zipcode":"239000"},{"district":"明光市","zipcode":"239000"},{"district":"南谯区","zipcode":"239000"},{"district":"全椒县","zipcode":"239000"},{"district":"天长市","zipcode":"239000"},{"district":"其他区","zipcode":"239000"}]},{"city":"阜阳市","districts":[{"district":"阜南县","zipcode":"236100"},{"district":"界首市","zipcode":"236100"},{"district":"临泉县","zipcode":"236100"},{"district":"太和县","zipcode":"236100"},{"district":"颍东区","zipcode":"236100"},{"district":"颍泉区","zipcode":"236100"},{"district":"颍上县","zipcode":"236100"},{"district":"颍州区","zipcode":"236100"},{"district":"其他区","zipcode":"236100"}]},{"city":"合肥市","districts":[{"district":"包河区","zipcode":"230000"},{"district":"长丰县","zipcode":"230000"},{"district":"肥东县","zipcode":"230000"},{"district":"肥西县","zipcode":"230000"},{"district":"庐阳区","zipcode":"230000"},{"district":"蜀山区","zipcode":"230000"},{"district":"瑶海区","zipcode":"230000"},{"district":"其他区","zipcode":"230000"}]},{"city":"淮北市","districts":[{"district":"杜集区","zipcode":"235000"},{"district":"烈山区","zipcode":"235000"},{"district":"濉溪县","zipcode":"235000"},{"district":"相山区","zipcode":"235000"},{"district":"其他区","zipcode":"235000"}]},{"city":"淮南市","districts":[{"district":"八公山区","zipcode":"232000"},{"district":"大通区","zipcode":"232000"},{"district":"凤台县","zipcode":"232000"},{"district":"潘集区","zipcode":"232000"},{"district":"田家庵区","zipcode":"232000"},{"district":"谢家集区","zipcode":"232000"},{"district":"其他区","zipcode":"232000"}]},{"city":"黄山市","districts":[{"district":"黄山区","zipcode":"242700"},{"district":"徽州区","zipcode":"242700"},{"district":"祁门县","zipcode":"242700"},{"district":"屯溪区","zipcode":"242700"},{"district":"歙县","zipcode":"242700"},{"district":"休宁县","zipcode":"242700"},{"district":"黟县","zipcode":"242700"},{"district":"其他区","zipcode":"242700"}]},{"city":"六安市","districts":[{"district":"霍邱县","zipcode":"237000"},{"district":"霍山县","zipcode":"237000"},{"district":"金安区","zipcode":"237000"},{"district":"金寨县","zipcode":"237000"},{"district":"寿县","zipcode":"237000"},{"district":"舒城县","zipcode":"237000"},{"district":"裕安区","zipcode":"237000"},{"district":"其他区","zipcode":"237000"}]},{"city":"马鞍山市","districts":[{"district":"当涂县","zipcode":"243000"},{"district":"花山区","zipcode":"243000"},{"district":"金家庄区","zipcode":"243000"},{"district":"雨山区","zipcode":"243000"},{"district":"其他区","zipcode":"243000"}]},{"city":"宿州市","districts":[{"district":"砀山县","zipcode":"234100"},{"district":"灵璧县","zipcode":"234100"},{"district":"泗县","zipcode":"234100"},{"district":"萧县","zipcode":"234100"},{"district":"墉桥区","zipcode":"234100"},{"district":"其他区","zipcode":"234100"}]},{"city":"铜陵市","districts":[{"district":"郊区","zipcode":"244000"},{"district":"狮子山区","zipcode":"244000"},{"district":"铜官山区","zipcode":"244000"},{"district":"铜陵县","zipcode":"244000"},{"district":"其他区","zipcode":"244000"}]},{"city":"芜湖市","districts":[{"district":"繁昌县","zipcode":"241000"},{"district":"镜湖区","zipcode":"241000"},{"district":"鸠江区","zipcode":"241000"},{"district":"南陵县","zipcode":"241000"},{"district":"三山区","zipcode":"241000"},{"district":"芜湖县","zipcode":"241000"},{"district":"弋江区","zipcode":"241000"},{"district":"其他区","zipcode":"241000"}]},{"city":"宣城市","districts":[{"district":"广德县","zipcode":"366000"},{"district":"绩溪县","zipcode":"366000"},{"district":"泾县","zipcode":"366000"},{"district":"旌德县","zipcode":"366000"},{"district":"郎溪县","zipcode":"366000"},{"district":"宁国市","zipcode":"366000"},{"district":"宣州区","zipcode":"366000"},{"district":"其他区","zipcode":"366000"}]}]},{"province":"福建省","cities":[{"city":"福州市","districts":[{"district":"仓山区","zipcode":"350000"},{"district":"长乐市","zipcode":"350000"},{"district":"福清市","zipcode":"350000"},{"district":"鼓楼区","zipcode":"350000"},{"district":"晋安区","zipcode":"350000"},{"district":"连江县","zipcode":"350000"},{"district":"罗源县","zipcode":"350000"},{"district":"马尾区","zipcode":"350000"},{"district":"闽侯县","zipcode":"350000"},{"district":"闽清县","zipcode":"350000"},{"district":"平潭县","zipcode":"350000"},{"district":"台江区","zipcode":"350000"},{"district":"永泰县","zipcode":"350000"},{"district":"其他区","zipcode":"350000"}]},{"city":"龙岩市","districts":[{"district":"长汀县","zipcode":"364000"},{"district":"连城县","zipcode":"364000"},{"district":"上杭县","zipcode":"364000"},{"district":"武平县","zipcode":"364000"},{"district":"新罗区","zipcode":"364000"},{"district":"永定县","zipcode":"364000"},{"district":"漳平市","zipcode":"364000"},{"district":"其他区","zipcode":"364000"}]},{"city":"南平市","districts":[{"district":"光泽县","zipcode":"353000"},{"district":"建瓯市","zipcode":"353000"},{"district":"建阳市","zipcode":"353000"},{"district":"浦城县","zipcode":"353000"},{"district":"邵武市","zipcode":"353000"},{"district":"顺昌县","zipcode":"353000"},{"district":"松溪县","zipcode":"353000"},{"district":"武夷山市","zipcode":"353000"},{"district":"延平区","zipcode":"353000"},{"district":"政和县","zipcode":"353000"},{"district":"其他区","zipcode":"353000"}]},{"city":"宁德市","districts":[{"district":"福安市","zipcode":"352100"},{"district":"福鼎市","zipcode":"352100"},{"district":"古田县","zipcode":"352100"},{"district":"蕉城区","zipcode":"352100"},{"district":"屏南县","zipcode":"352100"},{"district":"寿宁县","zipcode":"352100"},{"district":"霞浦县","zipcode":"352100"},{"district":"柘荣县","zipcode":"352100"},{"district":"周宁县","zipcode":"352100"},{"district":"其他区","zipcode":"352100"}]},{"city":"莆田市","districts":[{"district":"城厢区","zipcode":"351100"},{"district":"涵江区","zipcode":"351100"},{"district":"荔城区","zipcode":"351100"},{"district":"仙游县","zipcode":"351100"},{"district":"秀屿区","zipcode":"351100"},{"district":"其他区","zipcode":"351100"}]},{"city":"泉州市","districts":[{"district":"安溪县","zipcode":"362000"},{"district":"德化县","zipcode":"362000"},{"district":"丰泽区","zipcode":"362000"},{"district":"惠安县","zipcode":"362000"},{"district":"晋江市","zipcode":"362000"},{"district":"鲤城区","zipcode":"362000"},{"district":"洛江区","zipcode":"362000"},{"district":"南安市","zipcode":"362000"},{"district":"泉港区","zipcode":"362000"},{"district":"石狮市","zipcode":"362000"},{"district":"永春县","zipcode":"362000"},{"district":"其他区","zipcode":"362000"}]},{"city":"三明市","districts":[{"district":"大田县","zipcode":"365000"},{"district":"建宁县","zipcode":"365000"},{"district":"将乐县","zipcode":"365000"},{"district":"梅列区","zipcode":"365000"},{"district":"明溪县","zipcode":"365000"},{"district":"宁化县","zipcode":"365000"},{"district":"清流县","zipcode":"365000"},{"district":"三元区","zipcode":"365000"},{"district":"沙县","zipcode":"365000"},{"district":"泰宁县","zipcode":"365000"},{"district":"永安市","zipcode":"365000"},{"district":"尤溪县","zipcode":"365000"},{"district":"其他区","zipcode":"365000"}]},{"city":"厦门市","districts":[{"district":"海沧区","zipcode":"361000"},{"district":"湖里区","zipcode":"361000"},{"district":"集美区","zipcode":"361000"},{"district":"思明区","zipcode":"361000"},{"district":"同安区","zipcode":"361000"},{"district":"翔安区","zipcode":"361000"},{"district":"其他区","zipcode":"361000"}]},{"city":"漳州市","districts":[{"district":"长泰县","zipcode":"363000"},{"district":"东山县","zipcode":"363000"},{"district":"华安县","zipcode":"363000"},{"district":"龙海市","zipcode":"363000"},{"district":"龙文区","zipcode":"363000"},{"district":"南靖县","zipcode":"363000"},{"district":"平和县","zipcode":"363000"},{"district":"芗城区","zipcode":"363000"},{"district":"云霄县","zipcode":"363000"},{"district":"漳浦县","zipcode":"363000"},{"district":"诏安县","zipcode":"363000"},{"district":"其他区","zipcode":"363000"}]}]},{"province":"甘肃省","cities":[{"city":"白银市","districts":[{"district":"白银区","zipcode":"730900"},{"district":"会宁县","zipcode":"730900"},{"district":"景泰县","zipcode":"730900"},{"district":"靖远县","zipcode":"730900"},{"district":"平川区","zipcode":"730900"},{"district":"其他区","zipcode":"730900"}]},{"city":"定西市","districts":[{"district":"安定区","zipcode":"743000"},{"district":"临洮县","zipcode":"743000"},{"district":"陇西县","zipcode":"743000"},{"district":"岷县","zipcode":"743000"},{"district":"通渭县","zipcode":"743000"},{"district":"渭源县","zipcode":"743000"},{"district":"漳县","zipcode":"743000"},{"district":"其他区","zipcode":"743000"}]},{"city":"甘南藏族自治州","districts":[{"district":"迭部县","zipcode":"747000"},{"district":"合作市","zipcode":"747000"},{"district":"临潭县","zipcode":"747000"},{"district":"碌曲县","zipcode":"747000"},{"district":"玛曲县","zipcode":"747000"},{"district":"夏河县","zipcode":"747000"},{"district":"舟曲县","zipcode":"747000"},{"district":"卓尼县","zipcode":"747000"},{"district":"其他区","zipcode":"747000"}]},{"city":"金昌市","districts":[{"district":"金川区","zipcode":"737100"},{"district":"永昌县","zipcode":"737100"},{"district":"其他区","zipcode":"737100"}]},{"city":"酒泉市","districts":[{"district":"阿克塞哈萨克族自治县","zipcode":"735000"},{"district":"敦煌市","zipcode":"735000"},{"district":"瓜州县","zipcode":"735000"},{"district":"金塔县","zipcode":"735000"},{"district":"肃北蒙古族自治县","zipcode":"735000"},{"district":"肃州区","zipcode":"735000"},{"district":"玉门市","zipcode":"735000"},{"district":"其他区","zipcode":"735000"}]},{"city":"兰州市","districts":[{"district":"安宁区","zipcode":"730000"},{"district":"城关区","zipcode":"730000"},{"district":"皋兰县","zipcode":"730000"},{"district":"红古区","zipcode":"730000"},{"district":"七里河区","zipcode":"730000"},{"district":"西固区","zipcode":"730000"},{"district":"永登县","zipcode":"730000"},{"district":"榆中县","zipcode":"730000"},{"district":"其他区","zipcode":"730000"}]},{"city":"临夏回族自治州","districts":[{"district":"东乡族自治县","zipcode":"731100"},{"district":"广河县","zipcode":"731100"},{"district":"和政县","zipcode":"731100"},{"district":"积石山保安族东乡族撒拉族自治县","zipcode":"731100"},{"district":"康乐县","zipcode":"731100"},{"district":"临夏市","zipcode":"731100"},{"district":"临夏县","zipcode":"731100"},{"district":"永靖县","zipcode":"731100"},{"district":"其他区","zipcode":"731100"}]},{"city":"陇南市","districts":[{"district":"成县","zipcode":"742100"},{"district":"宕昌县","zipcode":"742100"},{"district":"徽县","zipcode":"742100"},{"district":"康县","zipcode":"742100"},{"district":"礼县","zipcode":"742100"},{"district":"两当县","zipcode":"742100"},{"district":"文县","zipcode":"742100"},{"district":"武都区","zipcode":"742100"},{"district":"西和县","zipcode":"742100"},{"district":"其他区","zipcode":"742100"}]},{"city":"平凉市","districts":[{"district":"崇信县","zipcode":"744000"},{"district":"华亭县","zipcode":"744000"},{"district":"泾川县","zipcode":"744000"},{"district":"静宁县","zipcode":"744000"},{"district":"崆峒区","zipcode":"744000"},{"district":"灵台县","zipcode":"744000"},{"district":"庄浪县","zipcode":"744000"},{"district":"其他区","zipcode":"744000"}]},{"city":"庆阳市","districts":[{"district":"合水县","zipcode":"744500"},{"district":"华池县","zipcode":"744500"},{"district":"环县","zipcode":"744500"},{"district":"宁县","zipcode":"744500"},{"district":"庆城县","zipcode":"744500"},{"district":"西峰区","zipcode":"744500"},{"district":"镇原县","zipcode":"744500"},{"district":"正宁县","zipcode":"744500"},{"district":"其他区","zipcode":"744500"}]},{"city":"天水市","districts":[{"district":"甘谷县","zipcode":"741000"},{"district":"麦积区","zipcode":"741000"},{"district":"秦安县","zipcode":"741000"},{"district":"秦州区","zipcode":"741000"},{"district":"清水县","zipcode":"741000"},{"district":"武山县","zipcode":"741000"},{"district":"张家川回族自治县","zipcode":"741000"},{"district":"其他区","zipcode":"741000"}]},{"city":"武威市","districts":[{"district":"古浪县","zipcode":"733000"},{"district":"凉州区","zipcode":"733000"},{"district":"民勤县","zipcode":"733000"},{"district":"天祝藏族自治县","zipcode":"733000"},{"district":"其他区","zipcode":"733000"}]},{"city":"张掖市","districts":[{"district":"甘州区","zipcode":"734000"},{"district":"高台县","zipcode":"734000"},{"district":"临泽县","zipcode":"734000"},{"district":"民乐县","zipcode":"734000"},{"district":"山丹县","zipcode":"734000"},{"district":"肃南裕固族自治县","zipcode":"734000"},{"district":"其他区","zipcode":"734000"}]}]},{"province":"广东省","cities":[{"city":"潮州市","districts":[{"district":"潮安县","zipcode":"515600"},{"district":"枫溪区","zipcode":"515600"},{"district":"饶平县","zipcode":"515600"},{"district":"湘桥区","zipcode":"515600"},{"district":"其他区","zipcode":"515600"}]},{"city":"佛山市","districts":[{"district":"禅城区","zipcode":"517000"},{"district":"高明区","zipcode":"517000"},{"district":"南海区","zipcode":"517000"},{"district":"三水区","zipcode":"517000"},{"district":"顺德区","zipcode":"517000"},{"district":"其他区","zipcode":"517000"}]},{"city":"广州市","districts":[{"district":"白云区","zipcode":"510000"},{"district":"从化市","zipcode":"510000"},{"district":"东山区","zipcode":"510000"},{"district":"番禺区","zipcode":"510000"},{"district":"芳村区","zipcode":"510000"},{"district":"海珠区","zipcode":"510000"},{"district":"花都区","zipcode":"510000"},{"district":"黄埔区","zipcode":"510000"},{"district":"荔湾区","zipcode":"510000"},{"district":"萝岗区","zipcode":"510000"},{"district":"天河区","zipcode":"510000"},{"district":"越秀区","zipcode":"510000"},{"district":"增城市","zipcode":"510000"},{"district":"其他区","zipcode":"510000"}]},{"city":"河源市","districts":[{"district":"东源县","zipcode":"517000"},{"district":"和平县","zipcode":"517000"},{"district":"连平县","zipcode":"517000"},{"district":"龙川县","zipcode":"517000"},{"district":"源城区","zipcode":"517000"},{"district":"紫金县","zipcode":"517000"},{"district":"其他区","zipcode":"517000"}]},{"city":"惠州市","districts":[{"district":"博罗县","zipcode":"516000"},{"district":"惠城区","zipcode":"516000"},{"district":"惠东县","zipcode":"516000"},{"district":"惠阳区","zipcode":"516000"},{"district":"龙门县","zipcode":"516000"},{"district":"其他区","zipcode":"516000"}]},{"city":"江门市","districts":[{"district":"恩平市","zipcode":"529000"},{"district":"鹤山市","zipcode":"529000"},{"district":"江海区","zipcode":"529000"},{"district":"开平市","zipcode":"529000"},{"district":"蓬江区","zipcode":"529000"},{"district":"台山市","zipcode":"529000"},{"district":"新会区","zipcode":"529000"},{"district":"其他区","zipcode":"529000"}]},{"city":"揭阳市","districts":[{"district":"东山区","zipcode":"522000"},{"district":"惠来县","zipcode":"522000"},{"district":"揭东县","zipcode":"522000"},{"district":"揭西县","zipcode":"522000"},{"district":"经济开发试验区","zipcode":"522000"},{"district":"普宁市","zipcode":"522000"},{"district":"榕城区","zipcode":"522000"},{"district":"其他区","zipcode":"522000"}]},{"city":"茂名市","districts":[{"district":"电白县","zipcode":"525000"},{"district":"高州市","zipcode":"525000"},{"district":"化州市","zipcode":"525000"},{"district":"茂港区","zipcode":"525000"},{"district":"茂南区","zipcode":"525000"},{"district":"信宜市","zipcode":"525000"},{"district":"其他区","zipcode":"525000"}]},{"city":"梅州市","districts":[{"district":"大埔县","zipcode":"514000"},{"district":"丰顺县","zipcode":"514000"},{"district":"蕉岭县","zipcode":"514000"},{"district":"梅江区","zipcode":"514000"},{"district":"梅县","zipcode":"514000"},{"district":"平远县","zipcode":"514000"},{"district":"五华县","zipcode":"514000"},{"district":"兴宁市","zipcode":"514000"},{"district":"其他区","zipcode":"514000"}]},{"city":"清远市","districts":[{"district":"佛冈县","zipcode":"511500"},{"district":"连南瑶族自治县","zipcode":"511500"},{"district":"连山壮族瑶族自治县","zipcode":"511500"},{"district":"连州市","zipcode":"511500"},{"district":"清城区","zipcode":"511500"},{"district":"清新县","zipcode":"511500"},{"district":"阳山县","zipcode":"511500"},{"district":"英德市","zipcode":"511500"},{"district":"其他区","zipcode":"511500"}]},{"city":"汕头市","districts":[{"district":"潮南区","zipcode":"515000"},{"district":"潮阳区","zipcode":"515000"},{"district":"澄海区","zipcode":"515000"},{"district":"濠江区","zipcode":"515000"},{"district":"金平区","zipcode":"515000"},{"district":"龙湖区","zipcode":"515000"},{"district":"南澳县","zipcode":"515000"},{"district":"其他区","zipcode":"515000"}]},{"city":"汕尾市","districts":[{"district":"城区","zipcode":"516600"},{"district":"海丰县","zipcode":"516600"},{"district":"红海湾经济开发试验区","zipcode":"516600"},{"district":"陆丰市","zipcode":"516600"},{"district":"陆河县","zipcode":"516600"},{"district":"其他区","zipcode":"516600"}]},{"city":"韶关市","districts":[{"district":"乐昌市","zipcode":"512000"},{"district":"南雄市","zipcode":"512000"},{"district":"曲江区","zipcode":"512000"},{"district":"仁化县","zipcode":"512000"},{"district":"乳源瑶族自治县","zipcode":"512000"},{"district":"始兴县","zipcode":"512000"},{"district":"翁源县","zipcode":"512000"},{"district":"武江区","zipcode":"512000"},{"district":"新丰县","zipcode":"512000"},{"district":"浈江区","zipcode":"512000"},{"district":"其他区","zipcode":"512000"}]},{"city":"深圳市","districts":[{"district":"宝安区","zipcode":"518000"},{"district":"福田区","zipcode":"518000"},{"district":"龙岗区","zipcode":"518000"},{"district":"罗湖区","zipcode":"518000"},{"district":"南山区","zipcode":"518000"},{"district":"盐田区","zipcode":"518000"},{"district":"其他区","zipcode":"518000"}]},{"city":"阳江市","districts":[{"district":"江城区","zipcode":"529500"},{"district":"阳春市","zipcode":"529500"},{"district":"阳东县","zipcode":"529500"},{"district":"阳西县","zipcode":"529500"},{"district":"其他区","zipcode":"529500"}]},{"city":"云浮市","districts":[{"district":"罗定市","zipcode":"527300"},{"district":"新兴县","zipcode":"527300"},{"district":"郁南县","zipcode":"527300"},{"district":"云安县","zipcode":"527300"},{"district":"云城区","zipcode":"527300"},{"district":"其他区","zipcode":"527300"}]},{"city":"湛江市","districts":[{"district":"赤坎区","zipcode":"524000"},{"district":"东海岛","zipcode":"524000"},{"district":"开发区","zipcode":"524000"},{"district":"雷州市","zipcode":"524000"},{"district":"廉江市","zipcode":"524000"},{"district":"麻章区","zipcode":"524000"},{"district":"坡头区","zipcode":"524000"},{"district":"遂溪县","zipcode":"524000"},{"district":"吴川市","zipcode":"524000"},{"district":"霞山区","zipcode":"524000"},{"district":"徐闻县","zipcode":"524000"},{"district":"其他区","zipcode":"524000"}]},{"city":"肇庆市","districts":[{"district":"德庆县","zipcode":"526000"},{"district":"鼎湖区","zipcode":"526000"},{"district":"端州区","zipcode":"526000"},{"district":"封开县","zipcode":"526000"},{"district":"高要市","zipcode":"526000"},{"district":"广宁县","zipcode":"526000"},{"district":"怀集县","zipcode":"526000"},{"district":"四会市","zipcode":"526000"},{"district":"其他区","zipcode":"526000"}]},{"city":"珠海市","districts":[{"district":"斗门区","zipcode":"519000"},{"district":"金湾区","zipcode":"519000"},{"district":"香洲区","zipcode":"519000"},{"district":"其他区","zipcode":"519000"}]}]},{"province":"广西壮族自治区","cities":[{"city":"百色市","districts":[{"district":"德保县","zipcode":"533000"},{"district":"靖西县","zipcode":"533000"},{"district":"乐业县","zipcode":"533000"},{"district":"凌云县","zipcode":"533000"},{"district":"隆林各族自治县","zipcode":"533000"},{"district":"那坡县","zipcode":"533000"},{"district":"平果县","zipcode":"533000"},{"district":"田东县","zipcode":"533000"},{"district":"田林县","zipcode":"533000"},{"district":"田阳县","zipcode":"533000"},{"district":"西林县","zipcode":"533000"},{"district":"右江区","zipcode":"533000"},{"district":"其他区","zipcode":"533000"}]},{"city":"北海市","districts":[{"district":"海城区","zipcode":"536000"},{"district":"合浦县","zipcode":"536000"},{"district":"铁山港区","zipcode":"536000"},{"district":"银海区","zipcode":"536000"},{"district":"其他区","zipcode":"536000"}]},{"city":"崇左市","districts":[{"district":"大新县","zipcode":"532200"},{"district":"扶绥县","zipcode":"532200"},{"district":"江洲区","zipcode":"532200"},{"district":"龙州县","zipcode":"532200"},{"district":"宁明县","zipcode":"532200"},{"district":"凭祥市","zipcode":"532200"},{"district":"天等县","zipcode":"532200"},{"district":"其他区","zipcode":"532200"}]},{"city":"防城港市","districts":[{"district":"东兴市","zipcode":"538000"},{"district":"防城区","zipcode":"538000"},{"district":"港口区","zipcode":"538000"},{"district":"上思县","zipcode":"538000"},{"district":"其他区","zipcode":"538000"}]},{"city":"贵港市","districts":[{"district":"港北区","zipcode":"537100"},{"district":"港南区","zipcode":"537100"},{"district":"桂平市","zipcode":"537100"},{"district":"平南县","zipcode":"537100"},{"district":"覃塘区","zipcode":"537100"},{"district":"其他区","zipcode":"537100"}]},{"city":"桂林市","districts":[{"district":"叠彩区","zipcode":"541000"},{"district":"恭城瑶族自治县","zipcode":"541000"},{"district":"灌阳县","zipcode":"541000"},{"district":"荔蒲县","zipcode":"541000"},{"district":"临桂县","zipcode":"541000"},{"district":"灵川县","zipcode":"541000"},{"district":"龙胜各族自治县","zipcode":"541000"},{"district":"平乐县","zipcode":"541000"},{"district":"七星区","zipcode":"541000"},{"district":"全州县","zipcode":"541000"},{"district":"象山区","zipcode":"541000"},{"district":"兴安县","zipcode":"541000"},{"district":"秀峰区","zipcode":"541000"},{"district":"雁山区","zipcode":"541000"},{"district":"阳朔县","zipcode":"541000"},{"district":"永福县","zipcode":"541000"},{"district":"资源县","zipcode":"541000"},{"district":"其他区","zipcode":"541000"}]},{"city":"河池市","districts":[{"district":"巴马瑶族自治县","zipcode":"547000"},{"district":"大化瑶族自治县","zipcode":"547000"},{"district":"东兰县","zipcode":"547000"},{"district":"都安瑶族自治县","zipcode":"547000"},{"district":"凤山县","zipcode":"547000"},{"district":"环江毛南族自治县","zipcode":"547000"},{"district":"金城江区","zipcode":"547000"},{"district":"罗城仫佬族自治县","zipcode":"547000"},{"district":"南丹县","zipcode":"547000"},{"district":"天峨县","zipcode":"547000"},{"district":"宜州市","zipcode":"547000"},{"district":"其他区","zipcode":"547000"}]},{"city":"贺州市","districts":[{"district":"八步区","zipcode":"542800"},{"district":"富川瑶族自治县","zipcode":"542800"},{"district":"昭平县","zipcode":"542800"},{"district":"钟山县","zipcode":"542800"},{"district":"其他区","zipcode":"542800"}]},{"city":"来宾市","districts":[{"district":"合山市","zipcode":"546100"},{"district":"金秀瑶族自治县","zipcode":"546100"},{"district":"武宣县","zipcode":"546100"},{"district":"象州县","zipcode":"546100"},{"district":"忻城县","zipcode":"546100"},{"district":"兴宾区","zipcode":"546100"},{"district":"其他区","zipcode":"546100"}]},{"city":"柳州市","districts":[{"district":"城中区","zipcode":"545000"},{"district":"柳北区","zipcode":"545000"},{"district":"柳城县","zipcode":"545000"},{"district":"柳江县","zipcode":"545000"},{"district":"柳南区","zipcode":"545000"},{"district":"鹿寨县","zipcode":"545000"},{"district":"融安县","zipcode":"545000"},{"district":"融水苗族自治县","zipcode":"545000"},{"district":"三江侗族自治县","zipcode":"545000"},{"district":"鱼峰区","zipcode":"545000"},{"district":"其他区","zipcode":"545000"}]},{"city":"南宁市","districts":[{"district":"宾阳县","zipcode":"530000"},{"district":"横县","zipcode":"530000"},{"district":"江南区","zipcode":"530000"},{"district":"良庆区","zipcode":"530000"},{"district":"隆安县","zipcode":"530000"},{"district":"马山县","zipcode":"530000"},{"district":"青秀区","zipcode":"530000"},{"district":"上林县","zipcode":"530000"},{"district":"武鸣县","zipcode":"530000"},{"district":"西乡塘区","zipcode":"530000"},{"district":"兴宁区","zipcode":"530000"},{"district":"邕宁区","zipcode":"530000"},{"district":"其他区","zipcode":"530000"}]},{"city":"钦州市","districts":[{"district":"灵山县","zipcode":"535000"},{"district":"浦北县","zipcode":"535000"},{"district":"钦北区","zipcode":"535000"},{"district":"钦南区","zipcode":"535000"},{"district":"其他区","zipcode":"535000"}]},{"city":"梧州市","districts":[{"district":"苍梧县","zipcode":"543000"},{"district":"岑溪市","zipcode":"543000"},{"district":"长洲区","zipcode":"543000"},{"district":"蝶山区","zipcode":"543000"},{"district":"蒙山县","zipcode":"543000"},{"district":"藤县","zipcode":"543000"},{"district":"万秀区","zipcode":"543000"},{"district":"其他区","zipcode":"543000"}]},{"city":"玉林市","districts":[{"district":"北流市","zipcode":"537000"},{"district":"博白县","zipcode":"537000"},{"district":"陆川县","zipcode":"537000"},{"district":"容县","zipcode":"537000"},{"district":"兴业县","zipcode":"537000"},{"district":"玉州区","zipcode":"537000"},{"district":"其他区","zipcode":"537000"}]}]},{"province":"贵州省","cities":[{"city":"安顺市","districts":[{"district":"关岭布依族苗族自治县","zipcode":"561000"},{"district":"平坝县","zipcode":"561000"},{"district":"普定县","zipcode":"561000"},{"district":"西秀区","zipcode":"561000"},{"district":"镇宁布依族苗族自治县","zipcode":"561000"},{"district":"紫云苗族布依族自治县","zipcode":"561000"},{"district":"其他区","zipcode":"561000"}]},{"city":"毕节地区","districts":[{"district":"毕节市","zipcode":"551700"},{"district":"大方县","zipcode":"551700"},{"district":"赫章县","zipcode":"551700"},{"district":"金沙县","zipcode":"551700"},{"district":"纳雍县","zipcode":"551700"},{"district":"黔西县","zipcode":"551700"},{"district":"威宁彝族回族苗族自治县","zipcode":"551700"},{"district":"织金县","zipcode":"551700"},{"district":"其他区","zipcode":"551700"}]},{"city":"贵阳市","districts":[{"district":"白云区","zipcode":"550000"},{"district":"花溪区","zipcode":"550000"},{"district":"开阳县","zipcode":"550000"},{"district":"南明区","zipcode":"550000"},{"district":"清镇市","zipcode":"550000"},{"district":"乌当区","zipcode":"550000"},{"district":"息烽县","zipcode":"550000"},{"district":"小河区","zipcode":"550000"},{"district":"修文县","zipcode":"550000"},{"district":"云岩区","zipcode":"550000"},{"district":"其他区","zipcode":"550000"}]},{"city":"六盘水市","districts":[{"district":"六枝特区","zipcode":"553000"},{"district":"盘县","zipcode":"553000"},{"district":"水城县","zipcode":"553000"},{"district":"钟山区","zipcode":"553000"},{"district":"其他区","zipcode":"553000"}]},{"city":"黔东南苗族侗族自治州","districts":[{"district":"岑巩县","zipcode":"556000"},{"district":"从江县","zipcode":"556000"},{"district":"丹寨县","zipcode":"556000"},{"district":"黄平县","zipcode":"556000"},{"district":"剑河县","zipcode":"556000"},{"district":"锦屏县","zipcode":"556000"},{"district":"凯里市","zipcode":"556000"},{"district":"雷山县","zipcode":"556000"},{"district":"黎平县","zipcode":"556000"},{"district":"麻江县","zipcode":"556000"},{"district":"榕江县","zipcode":"556000"},{"district":"三穗县","zipcode":"556000"},{"district":"施秉县","zipcode":"556000"},{"district":"台江县","zipcode":"556000"},{"district":"天柱县","zipcode":"556000"},{"district":"镇远县","zipcode":"556000"},{"district":"其他区","zipcode":"556000"}]},{"city":"黔南布依族苗族自治州","districts":[{"district":"长顺县","zipcode":"558000"},{"district":"都匀市","zipcode":"558000"},{"district":"独山县","zipcode":"558000"},{"district":"福泉市","zipcode":"558000"},{"district":"贵定县","zipcode":"558000"},{"district":"惠水县","zipcode":"558000"},{"district":"荔波县","zipcode":"558000"},{"district":"龙里县","zipcode":"558000"},{"district":"罗甸县","zipcode":"558000"},{"district":"平塘县","zipcode":"558000"},{"district":"三都水族自治县","zipcode":"558000"},{"district":"瓮安县","zipcode":"558000"},{"district":"其他区","zipcode":"558000"}]},{"city":"黔西南布依族苗族自治州","districts":[{"district":"安龙县","zipcode":"562400"},{"district":"册亨县","zipcode":"562400"},{"district":"普安县","zipcode":"562400"},{"district":"晴隆县","zipcode":"562400"},{"district":"望谟县","zipcode":"562400"},{"district":"兴仁县","zipcode":"562400"},{"district":"兴义市","zipcode":"562400"},{"district":"贞丰县","zipcode":"562400"},{"district":"其他区","zipcode":"562400"}]},{"city":"铜仁地区","districts":[{"district":"德江县","zipcode":"554300"},{"district":"江口县","zipcode":"554300"},{"district":"石阡县","zipcode":"554300"},{"district":"思南县","zipcode":"554300"},{"district":"松桃苗族自治县","zipcode":"554300"},{"district":"铜仁市","zipcode":"554300"},{"district":"万山特区","zipcode":"554300"},{"district":"沿河土家族自治县","zipcode":"554300"},{"district":"印江土家族苗族自治县","zipcode":"554300"},{"district":"玉屏侗族自治县","zipcode":"554300"},{"district":"其他区","zipcode":"554300"}]},{"city":"遵义市","districts":[{"district":"赤水市","zipcode":"563000"},{"district":"道真仡佬族苗族自治县","zipcode":"563000"},{"district":"凤冈县","zipcode":"563000"},{"district":"红花岗区","zipcode":"563000"},{"district":"汇川区","zipcode":"563000"},{"district":"湄潭县","zipcode":"563000"},{"district":"仁怀市","zipcode":"563000"},{"district":"绥阳县","zipcode":"563000"},{"district":"桐梓县","zipcode":"563000"},{"district":"务川仡佬族苗族自治县","zipcode":"563000"},{"district":"习水县","zipcode":"563000"},{"district":"余庆县","zipcode":"563000"},{"district":"正安县","zipcode":"563000"},{"district":"遵义县","zipcode":"563000"},{"district":"其他区","zipcode":"563000"}]}]},{"province":"海南省","cities":[{"city":"三亚市","districts":[{"district":"白沙黎族自治县","zipcode":"572000"},{"district":"保亭黎族苗族自治县","zipcode":"572000"},{"district":"昌江黎族自治县","zipcode":"572000"},{"district":"澄迈县","zipcode":"572000"},{"district":"儋州市","zipcode":"572000"},{"district":"定安县","zipcode":"572000"},{"district":"东方市","zipcode":"572000"},{"district":"乐东黎族自治县","zipcode":"572000"},{"district":"临高县","zipcode":"572000"},{"district":"陵水黎族自治县","zipcode":"572000"},{"district":"琼海市","zipcode":"572000"},{"district":"琼中黎族苗族自治县","zipcode":"572000"},{"district":"屯昌县","zipcode":"572000"},{"district":"万宁市","zipcode":"572000"},{"district":"文昌市","zipcode":"572000"},{"district":"五指山市","zipcode":"572000"},{"district":"西沙群岛","zipcode":"572000"},{"district":"其他区","zipcode":"572000"}]},{"city":"海口市","districts":[{"district":"龙华区","zipcode":"570000"},{"district":"美兰区","zipcode":"570000"},{"district":"琼山区","zipcode":"570000"},{"district":"秀英区","zipcode":"570000"},{"district":"其他区","zipcode":"570000"}]}]},{"province":"河北省","cities":[{"city":"保定市","districts":[{"district":"安国市","zipcode":"071000"},{"district":"安新县","zipcode":"071000"},{"district":"北市区","zipcode":"071000"},{"district":"博野县","zipcode":"071000"},{"district":"定兴县","zipcode":"071000"},{"district":"定州市","zipcode":"071000"},{"district":"阜平县","zipcode":"071000"},{"district":"高碑店市","zipcode":"071000"},{"district":"高阳县","zipcode":"071000"},{"district":"涞水县","zipcode":"071000"},{"district":"涞源县","zipcode":"071000"},{"district":"蠡县","zipcode":"071000"},{"district":"满城县","zipcode":"071000"},{"district":"南市区","zipcode":"071000"},{"district":"清苑县","zipcode":"071000"},{"district":"曲阳县","zipcode":"071000"},{"district":"容城县","zipcode":"071000"},{"district":"顺平县","zipcode":"071000"},{"district":"唐县","zipcode":"071000"},{"district":"望都县","zipcode":"071000"},{"district":"新市区","zipcode":"071000"},{"district":"雄县","zipcode":"071000"},{"district":"徐水县","zipcode":"071000"},{"district":"易县","zipcode":"071000"},{"district":"涿州市","zipcode":"071000"},{"district":"其他区","zipcode":"071000"}]},{"city":"沧州市","districts":[{"district":"泊头市","zipcode":"061000"},{"district":"沧县","zipcode":"061000"},{"district":"东光县","zipcode":"061000"},{"district":"海兴县","zipcode":"061000"},{"district":"河间市","zipcode":"061000"},{"district":"黄骅市","zipcode":"061000"},{"district":"孟村回族自治县","zipcode":"061000"},{"district":"南皮县","zipcode":"061000"},{"district":"青县","zipcode":"061000"},{"district":"任丘市","zipcode":"061000"},{"district":"肃宁县","zipcode":"061000"},{"district":"吴桥县","zipcode":"061000"},{"district":"献县","zipcode":"061000"},{"district":"新华区","zipcode":"061000"},{"district":"盐山县","zipcode":"061000"},{"district":"运河区","zipcode":"061000"},{"district":"其他区","zipcode":"061000"}]},{"city":"承德市","districts":[{"district":"承德县","zipcode":"067000"},{"district":"丰宁满族自治县","zipcode":"067000"},{"district":"宽城满族自治县","zipcode":"067000"},{"district":"隆化县","zipcode":"067000"},{"district":"滦平县","zipcode":"067000"},{"district":"平泉县","zipcode":"067000"},{"district":"双滦区","zipcode":"067000"},{"district":"双桥区","zipcode":"067000"},{"district":"围场满族蒙古族自治县","zipcode":"067000"},{"district":"兴隆县","zipcode":"067000"},{"district":"鹰手营子矿区","zipcode":"067000"},{"district":"其他区","zipcode":"067000"}]},{"city":"邯郸市","districts":[{"district":"成安县","zipcode":"056000"},{"district":"磁县","zipcode":"056000"},{"district":"丛台区","zipcode":"056000"},{"district":"大名县","zipcode":"056000"},{"district":"肥乡县","zipcode":"056000"},{"district":"峰峰矿区","zipcode":"056000"},{"district":"复兴区","zipcode":"056000"},{"district":"馆陶县","zipcode":"056000"},{"district":"广平县","zipcode":"056000"},{"district":"邯郸县","zipcode":"056000"},{"district":"邯山区","zipcode":"056000"},{"district":"鸡泽县","zipcode":"056000"},{"district":"临漳县","zipcode":"056000"},{"district":"邱县","zipcode":"056000"},{"district":"曲周县","zipcode":"056000"},{"district":"涉县","zipcode":"056000"},{"district":"魏县","zipcode":"056000"},{"district":"武安市","zipcode":"056000"},{"district":"永年县","zipcode":"056000"},{"district":"其他区","zipcode":"056000"}]},{"city":"衡水市","districts":[{"district":"安平县","zipcode":"053000"},{"district":"阜城县","zipcode":"053000"},{"district":"故城县","zipcode":"053000"},{"district":"冀州市","zipcode":"053000"},{"district":"景县","zipcode":"053000"},{"district":"饶阳县","zipcode":"053000"},{"district":"深州市","zipcode":"053000"},{"district":"桃城区","zipcode":"053000"},{"district":"武强县","zipcode":"053000"},{"district":"武邑县","zipcode":"053000"},{"district":"枣强县","zipcode":"053000"},{"district":"其他区","zipcode":"053000"}]},{"city":"廊坊市","districts":[{"district":"安次区","zipcode":"065000"},{"district":"霸州市","zipcode":"065000"},{"district":"大厂回族自治县","zipcode":"065000"},{"district":"大城县","zipcode":"065000"},{"district":"固安县","zipcode":"065000"},{"district":"广阳区","zipcode":"065000"},{"district":"三河市","zipcode":"065000"},{"district":"文安县","zipcode":"065000"},{"district":"香河县","zipcode":"065000"},{"district":"永清县","zipcode":"065000"},{"district":"其他区","zipcode":"065000"}]},{"city":"秦皇岛市","districts":[{"district":"北戴河区","zipcode":"066000"},{"district":"昌黎县","zipcode":"066000"},{"district":"抚宁县","zipcode":"066000"},{"district":"海港区","zipcode":"066000"},{"district":"经济技术开发区","zipcode":"066000"},{"district":"卢龙县","zipcode":"066000"},{"district":"青龙满族自治县","zipcode":"066000"},{"district":"山海关区","zipcode":"066000"},{"district":"其他区","zipcode":"066000"}]},{"city":"石家庄市","districts":[{"district":"长安区","zipcode":"050000"},{"district":"高邑县","zipcode":"050000"},{"district":"藁城市","zipcode":"050000"},{"district":"晋州市","zipcode":"050000"},{"district":"井陉矿区","zipcode":"050000"},{"district":"井陉县","zipcode":"050000"},{"district":"灵寿县","zipcode":"050000"},{"district":"鹿泉市","zipcode":"050000"},{"district":"栾城县","zipcode":"050000"},{"district":"平山县","zipcode":"050000"},{"district":"桥东区","zipcode":"050000"},{"district":"桥西区","zipcode":"050000"},{"district":"深泽县","zipcode":"050000"},{"district":"无极县","zipcode":"050000"},{"district":"辛集市","zipcode":"050000"},{"district":"新华区","zipcode":"050000"},{"district":"新乐市","zipcode":"050000"},{"district":"行唐县","zipcode":"050000"},{"district":"裕华区","zipcode":"050000"},{"district":"元氏县","zipcode":"050000"},{"district":"赞皇县","zipcode":"050000"},{"district":"赵县","zipcode":"050000"},{"district":"正定县","zipcode":"050000"},{"district":"其他区","zipcode":"050000"}]},{"city":"唐山市","districts":[{"district":"丰南区","zipcode":"063000"},{"district":"丰润区","zipcode":"063000"},{"district":"古冶区","zipcode":"063000"},{"district":"开平区","zipcode":"063000"},{"district":"乐亭县","zipcode":"063000"},{"district":"路北区","zipcode":"063000"},{"district":"路南区","zipcode":"063000"},{"district":"滦南县","zipcode":"063000"},{"district":"滦县","zipcode":"063000"},{"district":"迁安市","zipcode":"063000"},{"district":"迁西县","zipcode":"063000"},{"district":"唐海县","zipcode":"063000"},{"district":"玉田县","zipcode":"063000"},{"district":"遵化市","zipcode":"063000"},{"district":"其他区","zipcode":"063000"}]},{"city":"邢台市","districts":[{"district":"柏乡县","zipcode":"054000"},{"district":"广宗县","zipcode":"054000"},{"district":"巨鹿县","zipcode":"054000"},{"district":"临城县","zipcode":"054000"},{"district":"临西县","zipcode":"054000"},{"district":"隆尧县","zipcode":"054000"},{"district":"内丘县","zipcode":"054000"},{"district":"南宫市","zipcode":"054000"},{"district":"南和县","zipcode":"054000"},{"district":"宁晋县","zipcode":"054000"},{"district":"平乡县","zipcode":"054000"},{"district":"桥东区","zipcode":"054000"},{"district":"桥西区","zipcode":"054000"},{"district":"清河县","zipcode":"054000"},{"district":"任县","zipcode":"054000"},{"district":"沙河市","zipcode":"054000"},{"district":"威县","zipcode":"054000"},{"district":"新河县","zipcode":"054000"},{"district":"邢台县","zipcode":"054000"},{"district":"其他区","zipcode":"054000"}]},{"city":"张家口市","districts":[{"district":"赤城县","zipcode":"075000"},{"district":"崇礼县","zipcode":"075000"},{"district":"沽源县","zipcode":"075000"},{"district":"怀安县","zipcode":"075000"},{"district":"怀来县","zipcode":"075000"},{"district":"康保县","zipcode":"075000"},{"district":"桥东区","zipcode":"075000"},{"district":"桥西区","zipcode":"075000"},{"district":"尚义县","zipcode":"075000"},{"district":"万全县","zipcode":"075000"},{"district":"蔚县","zipcode":"075000"},{"district":"下花园区","zipcode":"075000"},{"district":"宣化区","zipcode":"075000"},{"district":"宣化县","zipcode":"075000"},{"district":"阳原县","zipcode":"075000"},{"district":"张北县","zipcode":"075000"},{"district":"涿鹿县","zipcode":"075000"},{"district":"其他区","zipcode":"075000"}]}]},{"province":"河南省","cities":[{"city":"安阳市","districts":[{"district":"安阳县","zipcode":"454900"},{"district":"北关区","zipcode":"454900"},{"district":"滑县","zipcode":"454900"},{"district":"林州市","zipcode":"454900"},{"district":"龙安区","zipcode":"454900"},{"district":"内黄县","zipcode":"454900"},{"district":"汤阴县","zipcode":"454900"},{"district":"文峰区","zipcode":"454900"},{"district":"殷都区","zipcode":"454900"},{"district":"其他区","zipcode":"454900"}]},{"city":"鹤壁市","districts":[{"district":"鹤山区","zipcode":"458000"},{"district":"浚县","zipcode":"458000"},{"district":"淇滨区","zipcode":"458000"},{"district":"淇县","zipcode":"458000"},{"district":"山城区","zipcode":"458000"},{"district":"其他区","zipcode":"458000"}]},{"city":"焦作市","districts":[{"district":"博爱县","zipcode":"454100"},{"district":"解放区","zipcode":"454100"},{"district":"孟州市","zipcode":"454100"},{"district":"沁阳市","zipcode":"454100"},{"district":"山阳区","zipcode":"454100"},{"district":"温县","zipcode":"454100"},{"district":"武陟县","zipcode":"454100"},{"district":"修武县","zipcode":"454100"},{"district":"中站区","zipcode":"454100"},{"district":"其他区","zipcode":"454100"}]},{"city":"开封市","districts":[{"district":"鼓楼区","zipcode":"475000"},{"district":"金明区","zipcode":"475000"},{"district":"开封县","zipcode":"475000"},{"district":"兰考县","zipcode":"475000"},{"district":"龙亭区","zipcode":"475000"},{"district":"杞县","zipcode":"475000"},{"district":"顺河回族区","zipcode":"475000"},{"district":"通许县","zipcode":"475000"},{"district":"尉氏县","zipcode":"475000"},{"district":"禹王台区","zipcode":"475000"},{"district":"其他区","zipcode":"475000"}]},{"city":"洛阳市","districts":[{"district":"瀍河回族区","zipcode":"471000"},{"district":"吉利区","zipcode":"471000"},{"district":"涧西区","zipcode":"471000"},{"district":"老城区","zipcode":"471000"},{"district":"栾川县","zipcode":"471000"},{"district":"洛龙区","zipcode":"471000"},{"district":"洛宁县","zipcode":"471000"},{"district":"孟津县","zipcode":"471000"},{"district":"汝阳县","zipcode":"471000"},{"district":"嵩县","zipcode":"471000"},{"district":"西工区","zipcode":"471000"},{"district":"新安县","zipcode":"471000"},{"district":"偃师市","zipcode":"471000"},{"district":"伊川县","zipcode":"471000"},{"district":"宜阳县","zipcode":"471000"},{"district":"其他区","zipcode":"471000"}]},{"city":"漯河市","districts":[{"district":"临颍县","zipcode":"462000"},{"district":"舞阳县","zipcode":"462000"},{"district":"郾城区","zipcode":"462000"},{"district":"源汇区","zipcode":"462000"},{"district":"召陵区","zipcode":"462000"},{"district":"其他区","zipcode":"462000"}]},{"city":"南阳市","districts":[{"district":"邓州市","zipcode":"473000"},{"district":"方城县","zipcode":"473000"},{"district":"内乡县","zipcode":"473000"},{"district":"南召县","zipcode":"473000"},{"district":"社旗县","zipcode":"473000"},{"district":"唐河县","zipcode":"473000"},{"district":"桐柏县","zipcode":"473000"},{"district":"宛城区","zipcode":"473000"},{"district":"卧龙区","zipcode":"473000"},{"district":"西峡县","zipcode":"473000"},{"district":"淅川县","zipcode":"473000"},{"district":"新野县","zipcode":"473000"},{"district":"镇平县","zipcode":"473000"},{"district":"其他区","zipcode":"473000"}]},{"city":"平顶山市","districts":[{"district":"宝丰县","zipcode":"467000"},{"district":"郏县","zipcode":"467000"},{"district":"鲁山县","zipcode":"467000"},{"district":"汝州市","zipcode":"467000"},{"district":"石龙区","zipcode":"467000"},{"district":"卫东区","zipcode":"467000"},{"district":"舞钢市","zipcode":"467000"},{"district":"新华区","zipcode":"467000"},{"district":"叶县","zipcode":"467000"},{"district":"湛河区","zipcode":"467000"},{"district":"其他区","zipcode":"467000"}]},{"city":"濮阳市","districts":[{"district":"范县","zipcode":"457000"},{"district":"华龙区","zipcode":"457000"},{"district":"南乐县","zipcode":"457000"},{"district":"濮阳县","zipcode":"457000"},{"district":"清丰县","zipcode":"457000"},{"district":"台前县","zipcode":"457000"},{"district":"其他区","zipcode":"457000"}]},{"city":"三门峡市","districts":[{"district":"湖滨区","zipcode":"472000"},{"district":"灵宝市","zipcode":"472000"},{"district":"卢氏县","zipcode":"472000"},{"district":"陕县","zipcode":"472000"},{"district":"渑池县","zipcode":"472000"},{"district":"义马市","zipcode":"472000"},{"district":"其他区","zipcode":"472000"}]},{"city":"商丘市","districts":[{"district":"梁园区","zipcode":"476000"},{"district":"民权县","zipcode":"476000"},{"district":"宁陵县","zipcode":"476000"},{"district":"睢县","zipcode":"476000"},{"district":"睢阳区","zipcode":"476000"},{"district":"夏邑县","zipcode":"476000"},{"district":"永城市","zipcode":"476000"},{"district":"虞城县","zipcode":"476000"},{"district":"柘城县","zipcode":"476000"},{"district":"其他区","zipcode":"476000"}]},{"city":"新乡市","districts":[{"district":"长垣县","zipcode":"453000"},{"district":"封丘县","zipcode":"453000"},{"district":"凤泉区","zipcode":"453000"},{"district":"红旗区","zipcode":"453000"},{"district":"辉县市","zipcode":"453000"},{"district":"获嘉县","zipcode":"453000"},{"district":"牧野区","zipcode":"453000"},{"district":"卫滨区","zipcode":"453000"},{"district":"卫辉市","zipcode":"453000"},{"district":"新乡县","zipcode":"453000"},{"district":"延津县","zipcode":"453000"},{"district":"原阳县","zipcode":"453000"},{"district":"其他区","zipcode":"453000"}]},{"city":"信阳市","districts":[{"district":"固始县","zipcode":"464000"},{"district":"光山县","zipcode":"464000"},{"district":"淮滨县","zipcode":"464000"},{"district":"潢川县","zipcode":"464000"},{"district":"罗山县","zipcode":"464000"},{"district":"平桥区","zipcode":"464000"},{"district":"商城县","zipcode":"464000"},{"district":"浉河区","zipcode":"464000"},{"district":"息县","zipcode":"464000"},{"district":"新县","zipcode":"464000"},{"district":"其他区","zipcode":"464000"}]},{"city":"许昌市","districts":[{"district":"长葛市","zipcode":"461000"},{"district":"魏都区","zipcode":"461000"},{"district":"襄城县","zipcode":"461000"},{"district":"许昌县","zipcode":"461000"},{"district":"鄢陵县","zipcode":"461000"},{"district":"禹州市","zipcode":"461000"},{"district":"其他区","zipcode":"461000"}]},{"city":"郑州市","districts":[{"district":"登封市","zipcode":"450000"},{"district":"二七区","zipcode":"450000"},{"district":"巩义市","zipcode":"450000"},{"district":"管城回族区","zipcode":"450000"},{"district":"惠济区","zipcode":"450000"},{"district":"金水区","zipcode":"450000"},{"district":"上街区","zipcode":"450000"},{"district":"新密市","zipcode":"450000"},{"district":"新郑市","zipcode":"450000"},{"district":"荥阳市","zipcode":"450000"},{"district":"中牟县","zipcode":"450000"},{"district":"中原区","zipcode":"450000"},{"district":"其他区","zipcode":"450000"}]},{"city":"周口市","districts":[{"district":"川汇区","zipcode":"466000"},{"district":"郸城县","zipcode":"466000"},{"district":"扶沟县","zipcode":"466000"},{"district":"淮阳县","zipcode":"466000"},{"district":"鹿邑县","zipcode":"466000"},{"district":"商水县","zipcode":"466000"},{"district":"沈丘县","zipcode":"466000"},{"district":"太康县","zipcode":"466000"},{"district":"西华县","zipcode":"466000"},{"district":"项城市","zipcode":"466000"},{"district":"其他区","zipcode":"466000"}]},{"city":"驻马店市","districts":[{"district":"泌阳县","zipcode":"463000"},{"district":"平舆县","zipcode":"463000"},{"district":"确山县","zipcode":"463000"},{"district":"汝南县","zipcode":"463000"},{"district":"上蔡县","zipcode":"463000"},{"district":"遂平县","zipcode":"463000"},{"district":"西平县","zipcode":"463000"},{"district":"新蔡县","zipcode":"463000"},{"district":"驿城区","zipcode":"463000"},{"district":"正阳县","zipcode":"463000"},{"district":"其他区","zipcode":"463000"}]}]},{"province":"黑龙江省","cities":[{"city":"大庆市","districts":[{"district":"大同区","zipcode":"163000"},{"district":"杜尔伯特蒙古族自治县","zipcode":"163000"},{"district":"红岗区","zipcode":"163000"},{"district":"林甸县","zipcode":"163000"},{"district":"龙凤区","zipcode":"163000"},{"district":"让胡路区","zipcode":"163000"},{"district":"萨尔图区","zipcode":"163000"},{"district":"肇源县","zipcode":"163000"},{"district":"肇州县","zipcode":"163000"},{"district":"其他区","zipcode":"163000"}]},{"city":"大兴安岭地区","districts":[{"district":"呼玛县","zipcode":"165000"},{"district":"呼中区","zipcode":"165000"},{"district":"加格达奇区","zipcode":"165000"},{"district":"漠河县","zipcode":"165000"},{"district":"松岭区","zipcode":"165000"},{"district":"塔河县","zipcode":"165000"},{"district":"新林区","zipcode":"165000"},{"district":"其他区","zipcode":"165000"}]},{"city":"哈尔滨市","districts":[{"district":"阿城区","zipcode":"150000"},{"district":"巴彦县","zipcode":"150000"},{"district":"宾县","zipcode":"150000"},{"district":"道里区","zipcode":"150000"},{"district":"道外区","zipcode":"150000"},{"district":"方正县","zipcode":"150000"},{"district":"呼兰区","zipcode":"150000"},{"district":"木兰县","zipcode":"150000"},{"district":"南岗区","zipcode":"150000"},{"district":"平房区","zipcode":"150000"},{"district":"尚志市","zipcode":"150000"},{"district":"双城市","zipcode":"150000"},{"district":"松北区","zipcode":"150000"},{"district":"通河县","zipcode":"150000"},{"district":"五常市","zipcode":"150000"},{"district":"香坊区","zipcode":"150000"},{"district":"延寿县","zipcode":"150000"},{"district":"依兰县","zipcode":"150000"},{"district":"其他区","zipcode":"150000"}]},{"city":"鹤岗市","districts":[{"district":"东山区","zipcode":"154100"},{"district":"工农区","zipcode":"154100"},{"district":"萝北县","zipcode":"154100"},{"district":"南山区","zipcode":"154100"},{"district":"绥滨县","zipcode":"154100"},{"district":"向阳区","zipcode":"154100"},{"district":"兴安区","zipcode":"154100"},{"district":"兴山区","zipcode":"154100"},{"district":"其他区","zipcode":"154100"}]},{"city":"黑河市","districts":[{"district":"爱辉区","zipcode":"164300"},{"district":"北安市","zipcode":"164300"},{"district":"嫩江县","zipcode":"164300"},{"district":"孙吴县","zipcode":"164300"},{"district":"五大连池市","zipcode":"164300"},{"district":"逊克县","zipcode":"164300"},{"district":"其他区","zipcode":"164300"}]},{"city":"鸡西市","districts":[{"district":"城子河区","zipcode":"158100"},{"district":"滴道区","zipcode":"158100"},{"district":"恒山区","zipcode":"158100"},{"district":"虎林市","zipcode":"158100"},{"district":"鸡东县","zipcode":"158100"},{"district":"鸡冠区","zipcode":"158100"},{"district":"梨树区","zipcode":"158100"},{"district":"麻山区","zipcode":"158100"},{"district":"密山市","zipcode":"158100"},{"district":"其他区","zipcode":"158100"}]},{"city":"佳木斯市","districts":[{"district":"东风区","zipcode":"154000"},{"district":"抚远县","zipcode":"154000"},{"district":"富锦市","zipcode":"154000"},{"district":"桦川县","zipcode":"154000"},{"district":"桦南县","zipcode":"154000"},{"district":"郊区","zipcode":"154000"},{"district":"前进区","zipcode":"154000"},{"district":"汤原县","zipcode":"154000"},{"district":"同江市","zipcode":"154000"},{"district":"向阳区","zipcode":"154000"},{"district":"其他区","zipcode":"154000"}]},{"city":"牡丹江市","districts":[{"district":"爱民区","zipcode":"157000"},{"district":"东安区","zipcode":"157000"},{"district":"东宁县","zipcode":"157000"},{"district":"海林市","zipcode":"157000"},{"district":"林口县","zipcode":"157000"},{"district":"穆棱市","zipcode":"157000"},{"district":"宁安市","zipcode":"157000"},{"district":"绥芬河市","zipcode":"157000"},{"district":"西安区","zipcode":"157000"},{"district":"阳明区","zipcode":"157000"},{"district":"其他区","zipcode":"157000"}]},{"city":"七台河市","districts":[{"district":"勃利县","zipcode":"154600"},{"district":"茄子河区","zipcode":"154600"},{"district":"桃山区","zipcode":"154600"},{"district":"新兴区","zipcode":"154600"},{"district":"其他区","zipcode":"154600"}]},{"city":"齐齐哈尔市","districts":[{"district":"昂昂溪区","zipcode":"161000"},{"district":"拜泉县","zipcode":"161000"},{"district":"富拉尔基区","zipcode":"161000"},{"district":"富裕县","zipcode":"161000"},{"district":"甘南县","zipcode":"161000"},{"district":"建华区","zipcode":"161000"},{"district":"克东县","zipcode":"161000"},{"district":"克山县","zipcode":"161000"},{"district":"龙江县","zipcode":"161000"},{"district":"龙沙区","zipcode":"161000"},{"district":"梅里斯达斡尔族区","zipcode":"161000"},{"district":"讷河市","zipcode":"161000"},{"district":"碾子山区","zipcode":"161000"},{"district":"泰来县","zipcode":"161000"},{"district":"铁锋区","zipcode":"161000"},{"district":"依安县","zipcode":"161000"},{"district":"其他区","zipcode":"161000"}]},{"city":"双鸭山市","districts":[{"district":"宝清县","zipcode":"155100"},{"district":"宝山区","zipcode":"155100"},{"district":"集贤县","zipcode":"155100"},{"district":"尖山区","zipcode":"155100"},{"district":"岭东区","zipcode":"155100"},{"district":"饶河县","zipcode":"155100"},{"district":"四方台区","zipcode":"155100"},{"district":"友谊县","zipcode":"155100"},{"district":"其他区","zipcode":"155100"}]},{"city":"绥化市","districts":[{"district":"安达市","zipcode":"152000"},{"district":"北林区","zipcode":"152000"},{"district":"海伦市","zipcode":"152000"},{"district":"兰西县","zipcode":"152000"},{"district":"明水县","zipcode":"152000"},{"district":"青冈县","zipcode":"152000"},{"district":"庆安县","zipcode":"152000"},{"district":"绥棱县","zipcode":"152000"},{"district":"望奎县","zipcode":"152000"},{"district":"肇东市","zipcode":"152000"},{"district":"其他区","zipcode":"152000"}]},{"city":"伊春市","districts":[{"district":"翠峦区","zipcode":"152300"},{"district":"带岭区","zipcode":"152300"},{"district":"红星区","zipcode":"152300"},{"district":"嘉荫县","zipcode":"152300"},{"district":"金山屯区","zipcode":"152300"},{"district":"美溪区","zipcode":"152300"},{"district":"南岔区","zipcode":"152300"},{"district":"上甘岭区","zipcode":"152300"},{"district":"汤旺河区","zipcode":"152300"},{"district":"铁力市","zipcode":"152300"},{"district":"乌马河区","zipcode":"152300"},{"district":"乌伊岭区","zipcode":"152300"},{"district":"五营区","zipcode":"152300"},{"district":"西林区","zipcode":"152300"},{"district":"新青区","zipcode":"152300"},{"district":"伊春区","zipcode":"152300"},{"district":"友好区","zipcode":"152300"},{"district":"其他区","zipcode":"152300"}]}]},{"province":"湖北省","cities":[{"city":"鄂州市","districts":[{"district":"鄂城区","zipcode":"436000"},{"district":"华容区","zipcode":"436000"},{"district":"梁子湖区","zipcode":"436000"},{"district":"其他区","zipcode":"436000"}]},{"city":"恩施土家族苗族自治州","districts":[{"district":"巴东县","zipcode":"445000"},{"district":"恩施市","zipcode":"445000"},{"district":"鹤峰县","zipcode":"445000"},{"district":"建始县","zipcode":"445000"},{"district":"来凤县","zipcode":"445000"},{"district":"利川市","zipcode":"445000"},{"district":"咸丰县","zipcode":"445000"},{"district":"宣恩县","zipcode":"445000"},{"district":"其他区","zipcode":"445000"}]},{"city":"黄冈市","districts":[{"district":"红安县","zipcode":"438000"},{"district":"黄梅县","zipcode":"438000"},{"district":"黄州区","zipcode":"438000"},{"district":"罗田县","zipcode":"438000"},{"district":"麻城市","zipcode":"438000"},{"district":"蕲春县","zipcode":"438000"},{"district":"团风县","zipcode":"438000"},{"district":"武穴市","zipcode":"438000"},{"district":"浠水县","zipcode":"438000"},{"district":"英山县","zipcode":"438000"},{"district":"其他区","zipcode":"438000"}]},{"city":"黄石市","districts":[{"district":"大冶市","zipcode":"435000"},{"district":"黄石港区","zipcode":"435000"},{"district":"铁山区","zipcode":"435000"},{"district":"团城山开发区","zipcode":"435000"},{"district":"西塞山区","zipcode":"435000"},{"district":"下陆区","zipcode":"435000"},{"district":"阳新县","zipcode":"435000"},{"district":"其他区","zipcode":"435000"}]},{"city":"荆门市","districts":[{"district":"东宝区","zipcode":"448000"},{"district":"掇刀区","zipcode":"448000"},{"district":"京山县","zipcode":"448000"},{"district":"沙洋县","zipcode":"448000"},{"district":"钟祥市","zipcode":"448000"},{"district":"其他区","zipcode":"448000"}]},{"city":"荆州市","districts":[{"district":"公安县","zipcode":"434000"},{"district":"洪湖市","zipcode":"434000"},{"district":"监利县","zipcode":"434000"},{"district":"江陵县","zipcode":"434000"},{"district":"荆州区","zipcode":"434000"},{"district":"沙市区","zipcode":"434000"},{"district":"石首市","zipcode":"434000"},{"district":"松滋市","zipcode":"434000"},{"district":"其他区","zipcode":"434000"}]},{"city":"十堰市","districts":[{"district":"丹江口市","zipcode":"442000"},{"district":"房县","zipcode":"442000"},{"district":"茅箭区","zipcode":"442000"},{"district":"郧西县","zipcode":"442000"},{"district":"郧县","zipcode":"442000"},{"district":"张湾区","zipcode":"442000"},{"district":"竹山县","zipcode":"442000"},{"district":"竹溪县","zipcode":"442000"},{"district":"其他区","zipcode":"442000"}]},{"city":"随州市","districts":[{"district":"广水市","zipcode":"441300"},{"district":"曾都区","zipcode":"441300"},{"district":"其他区","zipcode":"441300"}]},{"city":"武汉市","districts":[{"district":"蔡甸区","zipcode":"430000"},{"district":"东西湖区","zipcode":"430000"},{"district":"汉南区","zipcode":"430000"},{"district":"汉阳区","zipcode":"430000"},{"district":"洪山区","zipcode":"430000"},{"district":"黄陂区","zipcode":"430000"},{"district":"江岸区","zipcode":"430000"},{"district":"江汉区","zipcode":"430000"},{"district":"江夏区","zipcode":"430000"},{"district":"硚口区","zipcode":"430000"},{"district":"青山区","zipcode":"430000"},{"district":"武昌区","zipcode":"430000"},{"district":"新洲区","zipcode":"430000"},{"district":"其他区","zipcode":"430000"}]},{"city":"咸宁市","districts":[{"district":"赤壁市","zipcode":"437000"},{"district":"崇阳县","zipcode":"437000"},{"district":"嘉鱼县","zipcode":"437000"},{"district":"通城县","zipcode":"437000"},{"district":"通山县","zipcode":"437000"},{"district":"咸安区","zipcode":"437000"},{"district":"其他区","zipcode":"437000"}]},{"city":"襄樊市","districts":[{"district":"保康县","zipcode":"441000"},{"district":"樊城区","zipcode":"441000"},{"district":"谷城县","zipcode":"441000"},{"district":"老河口市","zipcode":"441000"},{"district":"南漳县","zipcode":"441000"},{"district":"襄城区","zipcode":"441000"},{"district":"襄阳区","zipcode":"441000"},{"district":"宜城市","zipcode":"441000"},{"district":"枣阳市","zipcode":"441000"},{"district":"其他区","zipcode":"441000"}]},{"city":"孝感市","districts":[{"district":"安陆市","zipcode":"432100"},{"district":"大悟县","zipcode":"432100"},{"district":"汉川市","zipcode":"432100"},{"district":"孝昌县","zipcode":"432100"},{"district":"孝南区","zipcode":"432100"},{"district":"应城市","zipcode":"432100"},{"district":"云梦县","zipcode":"432100"},{"district":"其他区","zipcode":"432100"}]},{"city":"宜昌市","districts":[{"district":"长阳土家族自治县","zipcode":"443000"},{"district":"当阳市","zipcode":"443000"},{"district":"点军区","zipcode":"443000"},{"district":"五峰土家族自治县","zipcode":"443000"},{"district":"伍家岗区","zipcode":"443000"},{"district":"西陵区","zipcode":"443000"},{"district":"猇亭区","zipcode":"443000"},{"district":"兴山县","zipcode":"443000"},{"district":"夷陵区","zipcode":"443000"},{"district":"宜都市","zipcode":"443000"},{"district":"远安县","zipcode":"443000"},{"district":"枝江市","zipcode":"443000"},{"district":"秭归县","zipcode":"443000"},{"district":"其他区","zipcode":"443000"}]}]},{"province":"湖南省","cities":[{"city":"长沙市","districts":[{"district":"长沙县","zipcode":"410000"},{"district":"芙蓉区","zipcode":"410000"},{"district":"开福区","zipcode":"410000"},{"district":"浏阳市","zipcode":"410000"},{"district":"宁乡县","zipcode":"410000"},{"district":"天心区","zipcode":"410000"},{"district":"望城县","zipcode":"410000"},{"district":"雨花区","zipcode":"410000"},{"district":"岳麓区","zipcode":"410000"},{"district":"其他区","zipcode":"410000"}]},{"city":"常德市","districts":[{"district":"安乡县","zipcode":"415000"},{"district":"鼎城区","zipcode":"415000"},{"district":"汉寿县","zipcode":"415000"},{"district":"津市市","zipcode":"415000"},{"district":"澧县","zipcode":"415000"},{"district":"临澧县","zipcode":"415000"},{"district":"石门县","zipcode":"415000"},{"district":"桃源县","zipcode":"415000"},{"district":"武陵区","zipcode":"415000"},{"district":"其他区","zipcode":"415000"}]},{"city":"郴州市","districts":[{"district":"安仁县","zipcode":"423000"},{"district":"北湖区","zipcode":"423000"},{"district":"桂东县","zipcode":"423000"},{"district":"桂阳县","zipcode":"423000"},{"district":"嘉禾县","zipcode":"423000"},{"district":"临武县","zipcode":"423000"},{"district":"汝城县","zipcode":"423000"},{"district":"苏仙区","zipcode":"423000"},{"district":"宜章县","zipcode":"423000"},{"district":"永兴县","zipcode":"423000"},{"district":"资兴市","zipcode":"423000"},{"district":"其他区","zipcode":"423000"}]},{"city":"衡阳市","districts":[{"district":"常宁市","zipcode":"421000"},{"district":"衡东县","zipcode":"421000"},{"district":"衡南县","zipcode":"421000"},{"district":"衡山县","zipcode":"421000"},{"district":"衡阳县","zipcode":"421000"},{"district":"耒阳市","zipcode":"421000"},{"district":"南岳区","zipcode":"421000"},{"district":"祁东县","zipcode":"421000"},{"district":"石鼓区","zipcode":"421000"},{"district":"雁峰区","zipcode":"421000"},{"district":"蒸湘区","zipcode":"421000"},{"district":"珠晖区","zipcode":"421000"},{"district":"其他区","zipcode":"421000"}]},{"city":"怀化市","districts":[{"district":"辰溪县","zipcode":"418000"},{"district":"鹤城区","zipcode":"418000"},{"district":"洪江市","zipcode":"418000"},{"district":"会同县","zipcode":"418000"},{"district":"靖州苗族侗族自治县","zipcode":"418000"},{"district":"麻阳苗族自治县","zipcode":"418000"},{"district":"通道侗族自治县","zipcode":"418000"},{"district":"新晃侗族自治县","zipcode":"418000"},{"district":"溆浦县","zipcode":"418000"},{"district":"沅陵县","zipcode":"418000"},{"district":"芷江侗族自治县","zipcode":"418000"},{"district":"中方县","zipcode":"418000"},{"district":"其他区","zipcode":"418000"}]},{"city":"娄底市","districts":[{"district":"冷水江市","zipcode":"417000"},{"district":"涟源市","zipcode":"417000"},{"district":"娄星区","zipcode":"417000"},{"district":"双峰县","zipcode":"417000"},{"district":"新化县","zipcode":"417000"},{"district":"其他区","zipcode":"417000"}]},{"city":"邵阳市","districts":[{"district":"北塔区","zipcode":"422000"},{"district":"城步苗族自治县","zipcode":"422000"},{"district":"大祥区","zipcode":"422000"},{"district":"洞口县","zipcode":"422000"},{"district":"隆回县","zipcode":"422000"},{"district":"邵东县","zipcode":"422000"},{"district":"邵阳县","zipcode":"422000"},{"district":"双清区","zipcode":"422000"},{"district":"绥宁县","zipcode":"422000"},{"district":"武冈市","zipcode":"422000"},{"district":"新宁县","zipcode":"422000"},{"district":"新邵县","zipcode":"422000"},{"district":"其他区","zipcode":"422000"}]},{"city":"湘潭市","districts":[{"district":"韶山市","zipcode":"411100"},{"district":"湘潭县","zipcode":"411100"},{"district":"湘乡市","zipcode":"411100"},{"district":"雨湖区","zipcode":"411100"},{"district":"岳塘区","zipcode":"411100"},{"district":"其他区","zipcode":"411100"}]},{"city":"湘西土家族苗族自治州","districts":[{"district":"保靖县","zipcode":"416000"},{"district":"凤凰县","zipcode":"416000"},{"district":"古丈县","zipcode":"416000"},{"district":"花垣县","zipcode":"416000"},{"district":"吉首市","zipcode":"416000"},{"district":"龙山县","zipcode":"416000"},{"district":"泸溪县","zipcode":"416000"},{"district":"永顺县","zipcode":"416000"},{"district":"其他区","zipcode":"416000"}]},{"city":"益阳市","districts":[{"district":"安化县","zipcode":"413000"},{"district":"赫山区","zipcode":"413000"},{"district":"南县","zipcode":"413000"},{"district":"桃江县","zipcode":"413000"},{"district":"沅江市","zipcode":"413000"},{"district":"资阳区","zipcode":"413000"},{"district":"其他区","zipcode":"413000"}]},{"city":"永州市","districts":[{"district":"道县","zipcode":"425000"},{"district":"东安县","zipcode":"425000"},{"district":"江华瑶族自治县","zipcode":"425000"},{"district":"江永县","zipcode":"425000"},{"district":"蓝山县","zipcode":"425000"},{"district":"冷水滩区","zipcode":"425000"},{"district":"零陵区","zipcode":"425000"},{"district":"宁远县","zipcode":"425000"},{"district":"祁阳县","zipcode":"425000"},{"district":"双牌县","zipcode":"425000"},{"district":"新田县","zipcode":"425000"},{"district":"其他区","zipcode":"425000"}]},{"city":"岳阳市","districts":[{"district":"华容县","zipcode":"414000"},{"district":"君山区","zipcode":"414000"},{"district":"临湘市","zipcode":"414000"},{"district":"汨罗市","zipcode":"414000"},{"district":"平江县","zipcode":"414000"},{"district":"湘阴县","zipcode":"414000"},{"district":"岳阳楼区","zipcode":"414000"},{"district":"岳阳县","zipcode":"414000"},{"district":"云溪区","zipcode":"414000"},{"district":"其他区","zipcode":"414000"}]},{"city":"张家界市","districts":[{"district":"慈利县","zipcode":"427000"},{"district":"桑植县","zipcode":"427000"},{"district":"武陵源区","zipcode":"427000"},{"district":"永定区","zipcode":"427000"},{"district":"其他区","zipcode":"427000"}]},{"city":"株洲市","districts":[{"district":"茶陵县","zipcode":"412000"},{"district":"荷塘区","zipcode":"412000"},{"district":"醴陵市","zipcode":"412000"},{"district":"芦淞区","zipcode":"412000"},{"district":"石峰区","zipcode":"412000"},{"district":"天元区","zipcode":"412000"},{"district":"炎陵县","zipcode":"412000"},{"district":"攸县","zipcode":"412000"},{"district":"株洲县","zipcode":"412000"},{"district":"其他区","zipcode":"412000"}]}]},{"province":"吉林省","cities":[{"city":"白城市","districts":[{"district":"大安市","zipcode":"137000"},{"district":"洮北区","zipcode":"137000"},{"district":"洮南市","zipcode":"137000"},{"district":"通榆县","zipcode":"137000"},{"district":"镇赉县","zipcode":"137000"},{"district":"其他区","zipcode":"137000"}]},{"city":"白山市","districts":[{"district":"八道江区","zipcode":"134300"},{"district":"长白朝鲜族自治县","zipcode":"134300"},{"district":"抚松县","zipcode":"134300"},{"district":"江源区","zipcode":"134300"},{"district":"靖宇县","zipcode":"134300"},{"district":"临江市","zipcode":"134300"},{"district":"其他区","zipcode":"134300"}]},{"city":"长春市","districts":[{"district":"朝阳区","zipcode":"130000"},{"district":"德惠市","zipcode":"130000"},{"district":"二道区","zipcode":"130000"},{"district":"九台市","zipcode":"130000"},{"district":"宽城区","zipcode":"130000"},{"district":"绿园区","zipcode":"130000"},{"district":"南关区","zipcode":"130000"},{"district":"农安县","zipcode":"130000"},{"district":"双阳区","zipcode":"130000"},{"district":"榆树市","zipcode":"130000"},{"district":"其他区","zipcode":"130000"}]},{"city":"吉林市","districts":[{"district":"昌邑区","zipcode":"132000"},{"district":"船营区","zipcode":"132000"},{"district":"丰满区","zipcode":"132000"},{"district":"桦甸市","zipcode":"132000"},{"district":"蛟河市","zipcode":"132000"},{"district":"龙潭区","zipcode":"132000"},{"district":"磐石市","zipcode":"132000"},{"district":"舒兰市","zipcode":"132000"},{"district":"永吉县","zipcode":"132000"},{"district":"其他区","zipcode":"132000"}]},{"city":"辽源市","districts":[{"district":"东丰县","zipcode":"136200"},{"district":"东辽县","zipcode":"136200"},{"district":"龙山区","zipcode":"136200"},{"district":"西安区","zipcode":"136200"},{"district":"其他区","zipcode":"136200"}]},{"city":"四平市","districts":[{"district":"公主岭市","zipcode":"136000"},{"district":"梨树县","zipcode":"136000"},{"district":"双辽市","zipcode":"136000"},{"district":"铁东区","zipcode":"136000"},{"district":"铁西区","zipcode":"136000"},{"district":"伊通满族自治县","zipcode":"136000"},{"district":"其他区","zipcode":"136000"}]},{"city":"松原市","districts":[{"district":"长岭县","zipcode":"131100"},{"district":"扶余县","zipcode":"131100"},{"district":"宁江区","zipcode":"131100"},{"district":"前郭尔罗斯蒙古族自治县","zipcode":"131100"},{"district":"乾安县","zipcode":"131100"},{"district":"其他区","zipcode":"131100"}]},{"city":"通化市","districts":[{"district":"东昌区","zipcode":"134000"},{"district":"二道江区","zipcode":"134000"},{"district":"辉南县","zipcode":"134000"},{"district":"集安市","zipcode":"134000"},{"district":"柳河县","zipcode":"134000"},{"district":"梅河口市","zipcode":"134000"},{"district":"通化县","zipcode":"134000"},{"district":"其他区","zipcode":"134000"}]},{"city":"延边朝鲜族自治州","districts":[{"district":"安图县","zipcode":"133000"},{"district":"敦化市","zipcode":"133000"},{"district":"和龙市","zipcode":"133000"},{"district":"珲春市","zipcode":"133000"},{"district":"龙井市","zipcode":"133000"},{"district":"图们市","zipcode":"133000"},{"district":"汪清县","zipcode":"133000"},{"district":"延吉市","zipcode":"133000"},{"district":"其他区","zipcode":"133000"}]}]},{"province":"江苏省","cities":[{"city":"常州市","districts":[{"district":"金坛市","zipcode":"213000"},{"district":"溧阳市","zipcode":"213000"},{"district":"戚墅堰区","zipcode":"213000"},{"district":"天宁区","zipcode":"213000"},{"district":"武进区","zipcode":"213000"},{"district":"新北区","zipcode":"213000"},{"district":"钟楼区","zipcode":"213000"},{"district":"其他区","zipcode":"213000"}]},{"city":"淮安市","districts":[{"district":"楚州区","zipcode":"223200"},{"district":"洪泽县","zipcode":"223200"},{"district":"淮阴区","zipcode":"223200"},{"district":"金湖县","zipcode":"223200"},{"district":"涟水县","zipcode":"223200"},{"district":"清河区","zipcode":"223200"},{"district":"清浦区","zipcode":"223200"},{"district":"盱眙县","zipcode":"223200"},{"district":"其他区","zipcode":"223200"}]},{"city":"连云港市","districts":[{"district":"东海县","zipcode":"222000"},{"district":"赣榆县","zipcode":"222000"},{"district":"灌南县","zipcode":"222000"},{"district":"灌云县","zipcode":"222000"},{"district":"海州区","zipcode":"222000"},{"district":"连云区","zipcode":"222000"},{"district":"新浦区","zipcode":"222000"},{"district":"其他区","zipcode":"222000"}]},{"city":"南京市","districts":[{"district":"白下区","zipcode":"210000"},{"district":"高淳县","zipcode":"210000"},{"district":"鼓楼区","zipcode":"210000"},{"district":"建邺区","zipcode":"210000"},{"district":"江宁区","zipcode":"210000"},{"district":"溧水县","zipcode":"210000"},{"district":"六合区","zipcode":"210000"},{"district":"浦口区","zipcode":"210000"},{"district":"栖霞区","zipcode":"210000"},{"district":"秦淮区","zipcode":"210000"},{"district":"下关区","zipcode":"210000"},{"district":"玄武区","zipcode":"210000"},{"district":"雨花台区","zipcode":"210000"},{"district":"其他区","zipcode":"210000"}]},{"city":"南通市","districts":[{"district":"崇川区","zipcode":"226000"},{"district":"港闸区","zipcode":"226000"},{"district":"海安县","zipcode":"226000"},{"district":"海门市","zipcode":"226000"},{"district":"启东市","zipcode":"226000"},{"district":"如东县","zipcode":"226000"},{"district":"如皋市","zipcode":"226000"},{"district":"通州市","zipcode":"226000"},{"district":"其他区","zipcode":"226000"}]},{"city":"苏州市","districts":[{"district":"沧浪区","zipcode":"215000"},{"district":"常熟市","zipcode":"215000"},{"district":"虎丘区","zipcode":"215000"},{"district":"金阊区","zipcode":"215000"},{"district":"昆山市","zipcode":"215000"},{"district":"平江区","zipcode":"215000"},{"district":"太仓市","zipcode":"215000"},{"district":"吴江市","zipcode":"215000"},{"district":"吴中区","zipcode":"215000"},{"district":"相城区","zipcode":"215000"},{"district":"张家港市","zipcode":"215000"},{"district":"其他区","zipcode":"215000"}]},{"city":"宿迁市","districts":[{"district":"沭阳县","zipcode":"223800"},{"district":"泗洪县","zipcode":"223800"},{"district":"泗阳县","zipcode":"223800"},{"district":"宿城区","zipcode":"223800"},{"district":"宿豫区","zipcode":"223800"},{"district":"其他区","zipcode":"223800"}]},{"city":"泰州市","districts":[{"district":"高港区","zipcode":"225300"},{"district":"海陵区","zipcode":"225300"},{"district":"姜堰市","zipcode":"225300"},{"district":"靖江市","zipcode":"225300"},{"district":"泰兴市","zipcode":"225300"},{"district":"兴化市","zipcode":"225300"},{"district":"其他区","zipcode":"225300"}]},{"city":"无锡市","districts":[{"district":"北塘区","zipcode":"214000"},{"district":"滨湖区","zipcode":"214000"},{"district":"崇安区","zipcode":"214000"},{"district":"惠山区","zipcode":"214000"},{"district":"江阴市","zipcode":"214000"},{"district":"南长区","zipcode":"214000"},{"district":"锡山区","zipcode":"214000"},{"district":"宜兴市","zipcode":"214000"},{"district":"其他区","zipcode":"214000"}]},{"city":"徐州市","districts":[{"district":"丰县","zipcode":"221000"},{"district":"鼓楼区","zipcode":"221000"},{"district":"贾汪区","zipcode":"221000"},{"district":"九里区","zipcode":"221000"},{"district":"沛县","zipcode":"221000"},{"district":"邳州市","zipcode":"221000"},{"district":"泉山区","zipcode":"221000"},{"district":"睢宁县","zipcode":"221000"},{"district":"铜山县","zipcode":"221000"},{"district":"新沂市","zipcode":"221000"},{"district":"云龙区","zipcode":"221000"},{"district":"其他区","zipcode":"221000"}]},{"city":"盐城市","districts":[{"district":"滨海县","zipcode":"224000"},{"district":"大丰市","zipcode":"224000"},{"district":"东台市","zipcode":"224000"},{"district":"阜宁县","zipcode":"224000"},{"district":"建湖县","zipcode":"224000"},{"district":"射阳县","zipcode":"224000"},{"district":"亭湖区","zipcode":"224000"},{"district":"响水县","zipcode":"224000"},{"district":"盐都区","zipcode":"224000"},{"district":"其他区","zipcode":"224000"}]},{"city":"扬州市","districts":[{"district":"宝应县","zipcode":"225000"},{"district":"高邮市","zipcode":"225000"},{"district":"广陵区","zipcode":"225000"},{"district":"邗江区","zipcode":"225000"},{"district":"江都市","zipcode":"225000"},{"district":"维扬区","zipcode":"225000"},{"district":"仪征市","zipcode":"225000"},{"district":"其他区","zipcode":"225000"}]},{"city":"镇江市","districts":[{"district":"丹徒区","zipcode":"212000"},{"district":"丹阳市","zipcode":"212000"},{"district":"京口区","zipcode":"212000"},{"district":"句容市","zipcode":"212000"},{"district":"润州区","zipcode":"212000"},{"district":"扬中市","zipcode":"212000"},{"district":"其他区","zipcode":"212000"}]}]},{"province":"江西省","cities":[{"city":"抚州市","districts":[{"district":"崇仁县","zipcode":"332900"},{"district":"东乡县","zipcode":"332900"},{"district":"广昌县","zipcode":"332900"},{"district":"金溪县","zipcode":"332900"},{"district":"乐安县","zipcode":"332900"},{"district":"黎川县","zipcode":"332900"},{"district":"临川区","zipcode":"332900"},{"district":"南城县","zipcode":"332900"},{"district":"南丰县","zipcode":"332900"},{"district":"宜黄县","zipcode":"332900"},{"district":"资溪县","zipcode":"332900"},{"district":"其他区","zipcode":"332900"}]},{"city":"赣州市","districts":[{"district":"安远县","zipcode":"341000"},{"district":"崇义县","zipcode":"341000"},{"district":"大余县","zipcode":"341000"},{"district":"定南县","zipcode":"341000"},{"district":"赣县","zipcode":"341000"},{"district":"会昌县","zipcode":"341000"},{"district":"龙南县","zipcode":"341000"},{"district":"南康市","zipcode":"341000"},{"district":"宁都县","zipcode":"341000"},{"district":"全南县","zipcode":"341000"},{"district":"瑞金市","zipcode":"341000"},{"district":"上犹县","zipcode":"341000"},{"district":"石城县","zipcode":"341000"},{"district":"信丰县","zipcode":"341000"},{"district":"兴国县","zipcode":"341000"},{"district":"寻乌县","zipcode":"341000"},{"district":"于都县","zipcode":"341000"},{"district":"章贡区","zipcode":"341000"},{"district":"其他区","zipcode":"341000"}]},{"city":"吉安市","districts":[{"district":"安福县","zipcode":"343000"},{"district":"吉安县","zipcode":"343000"},{"district":"吉水县","zipcode":"343000"},{"district":"吉州区","zipcode":"343000"},{"district":"井冈山市","zipcode":"343000"},{"district":"青原区","zipcode":"343000"},{"district":"遂川县","zipcode":"343000"},{"district":"泰和县","zipcode":"343000"},{"district":"万安县","zipcode":"343000"},{"district":"峡江县","zipcode":"343000"},{"district":"新干县","zipcode":"343000"},{"district":"永丰县","zipcode":"343000"},{"district":"永新县","zipcode":"343000"},{"district":"其他区","zipcode":"343000"}]},{"city":"景德镇市","districts":[{"district":"昌江区","zipcode":"333000"},{"district":"浮梁县","zipcode":"333000"},{"district":"乐平市","zipcode":"333000"},{"district":"珠山区","zipcode":"333000"},{"district":"其他区","zipcode":"333000"}]},{"city":"九江市","districts":[{"district":"德安县","zipcode":"332000"},{"district":"都昌县","zipcode":"332000"},{"district":"共青城","zipcode":"332000"},{"district":"湖口县","zipcode":"332000"},{"district":"九江县","zipcode":"332000"},{"district":"庐山区","zipcode":"332000"},{"district":"彭泽县","zipcode":"332000"},{"district":"瑞昌市","zipcode":"332000"},{"district":"武宁县","zipcode":"332000"},{"district":"星子县","zipcode":"332000"},{"district":"修水县","zipcode":"332000"},{"district":"浔阳区","zipcode":"332000"},{"district":"永修县","zipcode":"332000"},{"district":"其他区","zipcode":"332000"}]},{"city":"南昌市","districts":[{"district":"安义县","zipcode":"330000"},{"district":"东湖区","zipcode":"330000"},{"district":"进贤县","zipcode":"330000"},{"district":"南昌县","zipcode":"330000"},{"district":"青山湖区","zipcode":"330000"},{"district":"青云谱区","zipcode":"330000"},{"district":"湾里区","zipcode":"330000"},{"district":"西湖区","zipcode":"330000"},{"district":"新建县","zipcode":"330000"},{"district":"其他区","zipcode":"330000"}]},{"city":"萍乡市","districts":[{"district":"安源区","zipcode":"337000"},{"district":"莲花县","zipcode":"337000"},{"district":"芦溪县","zipcode":"337000"},{"district":"上栗县","zipcode":"337000"},{"district":"湘东区","zipcode":"337000"},{"district":"其他区","zipcode":"337000"}]},{"city":"上饶市","districts":[{"district":"德兴市","zipcode":"334000"},{"district":"广丰县","zipcode":"334000"},{"district":"横峰县","zipcode":"334000"},{"district":"鄱阳县","zipcode":"334000"},{"district":"铅山县","zipcode":"334000"},{"district":"上饶县","zipcode":"334000"},{"district":"万年县","zipcode":"334000"},{"district":"婺源县","zipcode":"334000"},{"district":"信州区","zipcode":"334000"},{"district":"弋阳县","zipcode":"334000"},{"district":"余干县","zipcode":"334000"},{"district":"玉山县","zipcode":"334000"},{"district":"其他区","zipcode":"334000"}]},{"city":"新余市","districts":[{"district":"分宜县","zipcode":"338000"},{"district":"渝水区","zipcode":"338000"},{"district":"其他区","zipcode":"338000"}]},{"city":"宜春市","districts":[{"district":"丰城市","zipcode":"336000"},{"district":"奉新县","zipcode":"336000"},{"district":"高安市","zipcode":"336000"},{"district":"靖安县","zipcode":"336000"},{"district":"上高县","zipcode":"336000"},{"district":"铜鼓县","zipcode":"336000"},{"district":"万载县","zipcode":"336000"},{"district":"宜丰县","zipcode":"336000"},{"district":"袁州区","zipcode":"336000"},{"district":"樟树市","zipcode":"336000"},{"district":"其他区","zipcode":"336000"}]},{"city":"鹰潭市","districts":[{"district":"贵溪市","zipcode":"335000"},{"district":"余江县","zipcode":"335000"},{"district":"月湖区","zipcode":"335000"},{"district":"其他区","zipcode":"335000"}]}]},{"province":"辽宁省","cities":[{"city":"鞍山市","districts":[{"district":"海城市","zipcode":"114000"},{"district":"立山区","zipcode":"114000"},{"district":"千山区","zipcode":"114000"},{"district":"台安县","zipcode":"114000"},{"district":"铁东区","zipcode":"114000"},{"district":"铁西区","zipcode":"114000"},{"district":"岫岩满族自治县","zipcode":"114000"},{"district":"其他区","zipcode":"114000"}]},{"city":"本溪市","districts":[{"district":"本溪满族自治县","zipcode":"117000"},{"district":"桓仁满族自治县","zipcode":"117000"},{"district":"明山区","zipcode":"117000"},{"district":"南芬区","zipcode":"117000"},{"district":"平山区","zipcode":"117000"},{"district":"溪湖区","zipcode":"117000"},{"district":"其他区","zipcode":"117000"}]},{"city":"朝阳市","districts":[{"district":"北票市","zipcode":"122000"},{"district":"朝阳县","zipcode":"122000"},{"district":"建平县","zipcode":"122000"},{"district":"喀喇沁左翼蒙古族自治县","zipcode":"122000"},{"district":"凌源市","zipcode":"122000"},{"district":"龙城区","zipcode":"122000"},{"district":"双塔区","zipcode":"122000"},{"district":"其他区","zipcode":"122000"}]},{"city":"大连市","districts":[{"district":"长海县","zipcode":"116000"},{"district":"甘井子区","zipcode":"116000"},{"district":"金州区","zipcode":"116000"},{"district":"旅顺口区","zipcode":"116000"},{"district":"普兰店市","zipcode":"116000"},{"district":"沙河口区","zipcode":"116000"},{"district":"瓦房店市","zipcode":"116000"},{"district":"西岗区","zipcode":"116000"},{"district":"中山区","zipcode":"116000"},{"district":"庄河市","zipcode":"116000"},{"district":"其他区","zipcode":"116000"}]},{"city":"丹东市","districts":[{"district":"东港市","zipcode":"118000"},{"district":"凤城市","zipcode":"118000"},{"district":"宽甸满族自治县","zipcode":"118000"},{"district":"元宝区","zipcode":"118000"},{"district":"振安区","zipcode":"118000"},{"district":"振兴区","zipcode":"118000"},{"district":"其他区","zipcode":"118000"}]},{"city":"抚顺市","districts":[{"district":"东洲区","zipcode":"113000"},{"district":"抚顺县","zipcode":"113000"},{"district":"清原满族自治县","zipcode":"113000"},{"district":"顺城区","zipcode":"113000"},{"district":"望花区","zipcode":"113000"},{"district":"新宾满族自治县","zipcode":"113000"},{"district":"新抚区","zipcode":"113000"},{"district":"其他区","zipcode":"113000"}]},{"city":"阜新市","districts":[{"district":"阜新蒙古族自治县","zipcode":"123000"},{"district":"海州区","zipcode":"123000"},{"district":"清河门区","zipcode":"123000"},{"district":"太平区","zipcode":"123000"},{"district":"细河区","zipcode":"123000"},{"district":"新邱区","zipcode":"123000"},{"district":"彰武县","zipcode":"123000"},{"district":"其他区","zipcode":"123000"}]},{"city":"葫芦岛市","districts":[{"district":"建昌县","zipcode":"125000"},{"district":"连山区","zipcode":"125000"},{"district":"龙港区","zipcode":"125000"},{"district":"南票区","zipcode":"125000"},{"district":"绥中县","zipcode":"125000"},{"district":"兴城市","zipcode":"125000"},{"district":"其他区","zipcode":"125000"}]},{"city":"锦州市","districts":[{"district":"北镇市","zipcode":"121000"},{"district":"古塔区","zipcode":"121000"},{"district":"黑山县","zipcode":"121000"},{"district":"凌海市","zipcode":"121000"},{"district":"凌河区","zipcode":"121000"},{"district":"太和区","zipcode":"121000"},{"district":"义县","zipcode":"121000"},{"district":"其他区","zipcode":"121000"}]},{"city":"辽阳市","districts":[{"district":"白塔区","zipcode":"111000"},{"district":"灯塔市","zipcode":"111000"},{"district":"弓长岭区","zipcode":"111000"},{"district":"宏伟区","zipcode":"111000"},{"district":"辽阳县","zipcode":"111000"},{"district":"太子河区","zipcode":"111000"},{"district":"文圣区","zipcode":"111000"},{"district":"其他区","zipcode":"111000"}]},{"city":"盘锦市","districts":[{"district":"大洼县","zipcode":"124000"},{"district":"盘山县","zipcode":"124000"},{"district":"双台子区","zipcode":"124000"},{"district":"兴隆台区","zipcode":"124000"},{"district":"其他区","zipcode":"124000"}]},{"city":"沈阳市","districts":[{"district":"大东区","zipcode":"110000"},{"district":"东陵区","zipcode":"110000"},{"district":"法库县","zipcode":"110000"},{"district":"和平区","zipcode":"110000"},{"district":"皇姑区","zipcode":"110000"},{"district":"康平县","zipcode":"110000"},{"district":"辽中县","zipcode":"110000"},{"district":"沈北新区","zipcode":"110000"},{"district":"沈河区","zipcode":"110000"},{"district":"苏家屯区","zipcode":"110000"},{"district":"铁西区","zipcode":"110000"},{"district":"新民市","zipcode":"110000"},{"district":"于洪区","zipcode":"110000"},{"district":"其他区","zipcode":"110000"}]},{"city":"铁岭市","districts":[{"district":"昌图县","zipcode":"112000"},{"district":"调兵山市","zipcode":"112000"},{"district":"开原市","zipcode":"112000"},{"district":"清河区","zipcode":"112000"},{"district":"铁岭县","zipcode":"112000"},{"district":"西丰县","zipcode":"112000"},{"district":"银州区","zipcode":"112000"},{"district":"其他区","zipcode":"112000"}]},{"city":"营口市","districts":[{"district":"鲅鱼圈区","zipcode":"115000"},{"district":"大石桥市","zipcode":"115000"},{"district":"盖州市","zipcode":"115000"},{"district":"老边区","zipcode":"115000"},{"district":"西市区","zipcode":"115000"},{"district":"站前区","zipcode":"115000"},{"district":"其他区","zipcode":"115000"}]}]},{"province":"内蒙古自治区","cities":[{"city":"阿拉善盟","districts":[{"district":"阿拉善右旗","zipcode":"750300"},{"district":"阿拉善左旗","zipcode":"750300"},{"district":"额济纳旗","zipcode":"750300"},{"district":"其他区","zipcode":"750300"}]},{"city":"巴彦淖尔市","districts":[{"district":"磴口县","zipcode":"014400"},{"district":"杭锦后旗","zipcode":"014400"},{"district":"临河区","zipcode":"014400"},{"district":"乌拉特后旗","zipcode":"014400"},{"district":"乌拉特前旗","zipcode":"014400"},{"district":"乌拉特中旗","zipcode":"014400"},{"district":"五原县","zipcode":"014400"},{"district":"其他区","zipcode":"014400"}]},{"city":"包头市","districts":[{"district":"白云鄂博矿区","zipcode":"014000"},{"district":"达尔罕茂明安联合旗","zipcode":"014000"},{"district":"东河区","zipcode":"014000"},{"district":"固阳县","zipcode":"014000"},{"district":"九原区","zipcode":"014000"},{"district":"昆都仑区","zipcode":"014000"},{"district":"青山区","zipcode":"014000"},{"district":"石拐区","zipcode":"014000"},{"district":"土默特右旗","zipcode":"014000"},{"district":"其他区","zipcode":"014000"}]},{"city":"赤峰市","districts":[{"district":"阿鲁科尔沁旗","zipcode":"024000"},{"district":"敖汉旗","zipcode":"024000"},{"district":"巴林右旗","zipcode":"024000"},{"district":"巴林左旗","zipcode":"024000"},{"district":"红山区","zipcode":"024000"},{"district":"喀喇沁旗","zipcode":"024000"},{"district":"克什克腾旗","zipcode":"024000"},{"district":"林西县","zipcode":"024000"},{"district":"宁城县","zipcode":"024000"},{"district":"松山区","zipcode":"024000"},{"district":"翁牛特旗","zipcode":"024000"},{"district":"元宝山区","zipcode":"024000"},{"district":"其他区","zipcode":"024000"}]},{"city":"鄂尔多斯市","districts":[{"district":"达拉特旗","zipcode":"010300"},{"district":"东胜区","zipcode":"010300"},{"district":"鄂托克旗","zipcode":"010300"},{"district":"鄂托克前旗","zipcode":"010300"},{"district":"杭锦旗","zipcode":"010300"},{"district":"乌审旗","zipcode":"010300"},{"district":"伊金霍洛旗","zipcode":"010300"},{"district":"准格尔旗","zipcode":"010300"},{"district":"其他区","zipcode":"010300"}]},{"city":"呼和浩特市","districts":[{"district":"和林格尔县","zipcode":"010000"},{"district":"回民区","zipcode":"010000"},{"district":"清水河县","zipcode":"010000"},{"district":"赛罕区","zipcode":"010000"},{"district":"土默特左旗","zipcode":"010000"},{"district":"托克托县","zipcode":"010000"},{"district":"武川县","zipcode":"010000"},{"district":"新城区","zipcode":"010000"},{"district":"玉泉区","zipcode":"010000"},{"district":"其他区","zipcode":"010000"}]},{"city":"呼伦贝尔市","districts":[{"district":"阿荣旗","zipcode":"021000"},{"district":"陈巴尔虎旗","zipcode":"021000"},{"district":"额尔古纳市","zipcode":"021000"},{"district":"鄂伦春自治旗","zipcode":"021000"},{"district":"鄂温克族自治旗","zipcode":"021000"},{"district":"根河市","zipcode":"021000"},{"district":"海拉尔区","zipcode":"021000"},{"district":"满洲里市","zipcode":"021000"},{"district":"莫力达瓦达斡尔族自治旗","zipcode":"021000"},{"district":"新巴尔虎右旗","zipcode":"021000"},{"district":"新巴尔虎左旗","zipcode":"021000"},{"district":"牙克石市","zipcode":"021000"},{"district":"扎兰屯市","zipcode":"021000"},{"district":"其他区","zipcode":"021000"}]},{"city":"通辽市","districts":[{"district":"霍林郭勒市","zipcode":"028000"},{"district":"开鲁县","zipcode":"028000"},{"district":"科尔沁区","zipcode":"028000"},{"district":"科尔沁左翼后旗","zipcode":"028000"},{"district":"科尔沁左翼中旗","zipcode":"028000"},{"district":"库伦旗","zipcode":"028000"},{"district":"奈曼旗","zipcode":"028000"},{"district":"扎鲁特旗","zipcode":"028000"},{"district":"其他区","zipcode":"028000"}]},{"city":"乌海市","districts":[{"district":"海勃湾区","zipcode":"016000"},{"district":"海南区","zipcode":"016000"},{"district":"乌达区","zipcode":"016000"},{"district":"其他区","zipcode":"016000"}]},{"city":"乌兰察布市","districts":[{"district":"察哈尔右翼后旗","zipcode":"012000"},{"district":"察哈尔右翼前旗","zipcode":"012000"},{"district":"察哈尔右翼中旗","zipcode":"012000"},{"district":"丰镇市","zipcode":"012000"},{"district":"化德县","zipcode":"012000"},{"district":"集宁区","zipcode":"012000"},{"district":"凉城县","zipcode":"012000"},{"district":"商都县","zipcode":"012000"},{"district":"四子王旗","zipcode":"012000"},{"district":"兴和县","zipcode":"012000"},{"district":"卓资县","zipcode":"012000"},{"district":"其他区","zipcode":"012000"}]},{"city":"锡林郭勒盟","districts":[{"district":"阿巴嘎旗","zipcode":"011100"},{"district":"东乌珠穆沁旗","zipcode":"011100"},{"district":"多伦县","zipcode":"011100"},{"district":"二连浩特市","zipcode":"011100"},{"district":"苏尼特右旗","zipcode":"011100"},{"district":"苏尼特左旗","zipcode":"011100"},{"district":"太仆寺旗","zipcode":"011100"},{"district":"西乌珠穆沁旗","zipcode":"011100"},{"district":"锡林浩特市","zipcode":"011100"},{"district":"镶黄旗","zipcode":"011100"},{"district":"正蓝旗","zipcode":"011100"},{"district":"正镶白旗","zipcode":"011100"},{"district":"其他区","zipcode":"011100"}]},{"city":"兴安盟","districts":[{"district":"阿尔山市","zipcode":"137400"},{"district":"科尔沁右翼前旗","zipcode":"137400"},{"district":"科尔沁右翼中旗","zipcode":"137400"},{"district":"突泉县","zipcode":"137400"},{"district":"乌兰浩特市","zipcode":"137400"},{"district":"扎赉特旗","zipcode":"137400"},{"district":"其他区","zipcode":"137400"}]}]},{"province":"宁夏回族自治区","cities":[{"city":"固原市","districts":[{"district":"泾源县","zipcode":"756000"},{"district":"隆德县","zipcode":"756000"},{"district":"彭阳县","zipcode":"756000"},{"district":"西吉县","zipcode":"756000"},{"district":"原州区","zipcode":"756000"},{"district":"其他区","zipcode":"756000"}]},{"city":"石嘴山市","districts":[{"district":"大武口区","zipcode":"753000"},{"district":"惠农区","zipcode":"753000"},{"district":"平罗县","zipcode":"753000"},{"district":"其他区","zipcode":"753000"}]},{"city":"吴忠市","districts":[{"district":"利通区","zipcode":"751100"},{"district":"青铜峡市","zipcode":"751100"},{"district":"同心县","zipcode":"751100"},{"district":"盐池县","zipcode":"751100"},{"district":"其他区","zipcode":"751100"}]},{"city":"银川市","districts":[{"district":"贺兰县","zipcode":"750000"},{"district":"金凤区","zipcode":"750000"},{"district":"灵武市","zipcode":"750000"},{"district":"西夏区","zipcode":"750000"},{"district":"兴庆区","zipcode":"750000"},{"district":"永宁县","zipcode":"750000"},{"district":"其他区","zipcode":"750000"}]},{"city":"中卫市","districts":[{"district":"海原县","zipcode":"751700"},{"district":"沙坡头区","zipcode":"751700"},{"district":"中宁县","zipcode":"751700"},{"district":"其他区","zipcode":"751700"}]}]},{"province":"青海省","cities":[{"city":"果洛藏族自治州","districts":[{"district":"班玛县","zipcode":"814000"},{"district":"达日县","zipcode":"814000"},{"district":"甘德县","zipcode":"814000"},{"district":"久治县","zipcode":"814000"},{"district":"玛多县","zipcode":"814000"},{"district":"玛沁县","zipcode":"814000"},{"district":"其他区","zipcode":"814000"}]},{"city":"海北藏族自治州","districts":[{"district":"刚察县","zipcode":"812200"},{"district":"海晏县","zipcode":"812200"},{"district":"门源回族自治县","zipcode":"812200"},{"district":"祁连县","zipcode":"812200"},{"district":"其他区","zipcode":"812200"}]},{"city":"海东地区","districts":[{"district":"互助土族自治县","zipcode":"810600"},{"district":"化隆回族自治县","zipcode":"810600"},{"district":"乐都县","zipcode":"810600"},{"district":"民和回族土族自治县","zipcode":"810600"},{"district":"平安县","zipcode":"810600"},{"district":"循化撒拉族自治县","zipcode":"810600"},{"district":"其他区","zipcode":"810600"}]},{"city":"海南藏族自治州","districts":[{"district":"共和县","zipcode":"813000"},{"district":"贵德县","zipcode":"813000"},{"district":"贵南县","zipcode":"813000"},{"district":"同德县","zipcode":"813000"},{"district":"兴海县","zipcode":"813000"},{"district":"其他区","zipcode":"813000"}]},{"city":"海西蒙古族藏族自治州","districts":[{"district":"大柴旦","zipcode":"817000"},{"district":"德令哈市","zipcode":"817000"},{"district":"都兰县","zipcode":"817000"},{"district":"格尔木市","zipcode":"817000"},{"district":"冷湖","zipcode":"817000"},{"district":"茫崖","zipcode":"817000"},{"district":"天峻县","zipcode":"817000"},{"district":"乌兰县","zipcode":"817000"},{"district":"其他区","zipcode":"817000"}]},{"city":"黄南藏族自治州","districts":[{"district":"河南蒙古族自治县","zipcode":"811300"},{"district":"尖扎县","zipcode":"811300"},{"district":"同仁县","zipcode":"811300"},{"district":"泽库县","zipcode":"811300"},{"district":"其他区","zipcode":"811300"}]},{"city":"西宁市","districts":[{"district":"城北区","zipcode":"810000"},{"district":"城东区","zipcode":"810000"},{"district":"城西区","zipcode":"810000"},{"district":"城中区","zipcode":"810000"},{"district":"大通回族土族自治县","zipcode":"810000"},{"district":"湟源县","zipcode":"810000"},{"district":"湟中县","zipcode":"810000"},{"district":"其他区","zipcode":"810000"}]},{"city":"玉树藏族自治州","districts":[{"district":"称多县","zipcode":"815000"},{"district":"囊谦县","zipcode":"815000"},{"district":"曲麻莱县","zipcode":"815000"},{"district":"玉树县","zipcode":"815000"},{"district":"杂多县","zipcode":"815000"},{"district":"治多县","zipcode":"815000"},{"district":"其他区","zipcode":"815000"}]}]},{"province":"山东省","cities":[{"city":"滨州市","districts":[{"district":"滨城区","zipcode":"256600"},{"district":"博兴县","zipcode":"256600"},{"district":"惠民县","zipcode":"256600"},{"district":"无棣县","zipcode":"256600"},{"district":"阳信县","zipcode":"256600"},{"district":"沾化县","zipcode":"256600"},{"district":"邹平县","zipcode":"256600"},{"district":"其他区","zipcode":"256600"}]},{"city":"德州市","districts":[{"district":"德城区","zipcode":"253000"},{"district":"乐陵市","zipcode":"253000"},{"district":"临邑县","zipcode":"253000"},{"district":"陵县","zipcode":"253000"},{"district":"宁津县","zipcode":"253000"},{"district":"平原县","zipcode":"253000"},{"district":"齐河县","zipcode":"253000"},{"district":"庆云县","zipcode":"253000"},{"district":"武城县","zipcode":"253000"},{"district":"夏津县","zipcode":"253000"},{"district":"禹城市","zipcode":"253000"},{"district":"其他区","zipcode":"253000"}]},{"city":"东营市","districts":[{"district":"东营区","zipcode":"257000"},{"district":"广饶县","zipcode":"257000"},{"district":"河口区","zipcode":"257000"},{"district":"垦利县","zipcode":"257000"},{"district":"利津县","zipcode":"257000"},{"district":"其他区","zipcode":"257000"}]},{"city":"菏泽市","districts":[{"district":"曹县","zipcode":"274000"},{"district":"成武县","zipcode":"274000"},{"district":"单县","zipcode":"274000"},{"district":"定陶县","zipcode":"274000"},{"district":"东明县","zipcode":"274000"},{"district":"巨野县","zipcode":"274000"},{"district":"鄄城县","zipcode":"274000"},{"district":"牡丹区","zipcode":"274000"},{"district":"郓城县","zipcode":"274000"},{"district":"其他区","zipcode":"274000"}]},{"city":"济南市","districts":[{"district":"长清区","zipcode":"250000"},{"district":"槐荫区","zipcode":"250000"},{"district":"济阳县","zipcode":"250000"},{"district":"历城区","zipcode":"250000"},{"district":"历下区","zipcode":"250000"},{"district":"平阴县","zipcode":"250000"},{"district":"商河县","zipcode":"250000"},{"district":"市中区","zipcode":"250000"},{"district":"天桥区","zipcode":"250000"},{"district":"章丘市","zipcode":"250000"},{"district":"其他区","zipcode":"250000"}]},{"city":"济宁市","districts":[{"district":"嘉祥县","zipcode":"272100"},{"district":"金乡县","zipcode":"272100"},{"district":"梁山县","zipcode":"272100"},{"district":"曲阜市","zipcode":"272100"},{"district":"任城区","zipcode":"272100"},{"district":"市中区","zipcode":"272100"},{"district":"泗水县","zipcode":"272100"},{"district":"微山县","zipcode":"272100"},{"district":"汶上县","zipcode":"272100"},{"district":"兖州市","zipcode":"272100"},{"district":"鱼台县","zipcode":"272100"},{"district":"邹城市","zipcode":"272100"},{"district":"其他区","zipcode":"272100"}]},{"city":"莱芜市","districts":[{"district":"钢城区","zipcode":"271100"},{"district":"莱城区","zipcode":"271100"},{"district":"其他区","zipcode":"271100"}]},{"city":"聊城市","districts":[{"district":"茌平县","zipcode":"252000"},{"district":"东阿县","zipcode":"252000"},{"district":"东昌府区","zipcode":"252000"},{"district":"高唐县","zipcode":"252000"},{"district":"冠县","zipcode":"252000"},{"district":"临清市","zipcode":"252000"},{"district":"莘县","zipcode":"252000"},{"district":"阳谷县","zipcode":"252000"},{"district":"其他区","zipcode":"252000"}]},{"city":"临沂市","districts":[{"district":"苍山县","zipcode":"276000"},{"district":"费县","zipcode":"276000"},{"district":"河东区","zipcode":"276000"},{"district":"莒南县","zipcode":"276000"},{"district":"兰山区","zipcode":"276000"},{"district":"临沭县","zipcode":"276000"},{"district":"罗庄区","zipcode":"276000"},{"district":"蒙阴县","zipcode":"276000"},{"district":"平邑县","zipcode":"276000"},{"district":"郯城县","zipcode":"276000"},{"district":"沂南县","zipcode":"276000"},{"district":"沂水县","zipcode":"276000"},{"district":"其他区","zipcode":"276000"}]},{"city":"青岛市","districts":[{"district":"城阳区","zipcode":"266000"},{"district":"黄岛区","zipcode":"266000"},{"district":"即墨市","zipcode":"266000"},{"district":"胶南市","zipcode":"266000"},{"district":"胶州市","zipcode":"266000"},{"district":"莱西市","zipcode":"266000"},{"district":"崂山区","zipcode":"266000"},{"district":"李沧区","zipcode":"266000"},{"district":"平度市","zipcode":"266000"},{"district":"市北区","zipcode":"266000"},{"district":"市南区","zipcode":"266000"},{"district":"四方区","zipcode":"266000"},{"district":"其他区","zipcode":"266000"}]},{"city":"日照市","districts":[{"district":"东港区","zipcode":"276800"},{"district":"莒县","zipcode":"276800"},{"district":"岚山区","zipcode":"276800"},{"district":"五莲县","zipcode":"276800"},{"district":"其他区","zipcode":"276800"}]},{"city":"泰安市","districts":[{"district":"岱岳区","zipcode":"271000"},{"district":"东平县","zipcode":"271000"},{"district":"肥城市","zipcode":"271000"},{"district":"宁阳县","zipcode":"271000"},{"district":"泰山区","zipcode":"271000"},{"district":"新泰市","zipcode":"271000"},{"district":"其他区","zipcode":"271000"}]},{"city":"威海市","districts":[{"district":"环翠区","zipcode":"265700"},{"district":"荣成市","zipcode":"265700"},{"district":"乳山市","zipcode":"265700"},{"district":"文登市","zipcode":"265700"},{"district":"其他区","zipcode":"265700"}]},{"city":"潍坊市","districts":[{"district":"安丘市","zipcode":"261000"},{"district":"昌乐县","zipcode":"261000"},{"district":"昌邑市","zipcode":"261000"},{"district":"坊子区","zipcode":"261000"},{"district":"高密市","zipcode":"261000"},{"district":"寒亭区","zipcode":"261000"},{"district":"奎文区","zipcode":"261000"},{"district":"临朐县","zipcode":"261000"},{"district":"青州市","zipcode":"261000"},{"district":"寿光市","zipcode":"261000"},{"district":"潍城区","zipcode":"261000"},{"district":"诸城市","zipcode":"261000"},{"district":"其他区","zipcode":"261000"}]},{"city":"烟台市","districts":[{"district":"长岛县","zipcode":"264000"},{"district":"福山区","zipcode":"264000"},{"district":"海阳市","zipcode":"264000"},{"district":"开发区","zipcode":"264000"},{"district":"莱山区","zipcode":"264000"},{"district":"莱阳市","zipcode":"264000"},{"district":"莱州市","zipcode":"264000"},{"district":"龙口市","zipcode":"264000"},{"district":"牟平区","zipcode":"264000"},{"district":"蓬莱市","zipcode":"264000"},{"district":"栖霞市","zipcode":"264000"},{"district":"招远市","zipcode":"264000"},{"district":"芝罘区","zipcode":"264000"},{"district":"其他区","zipcode":"264000"}]},{"city":"枣庄市","districts":[{"district":"山亭区","zipcode":"277100"},{"district":"市中区","zipcode":"277100"},{"district":"台儿庄区","zipcode":"277100"},{"district":"滕州市","zipcode":"277100"},{"district":"薛城区","zipcode":"277100"},{"district":"峄城区","zipcode":"277100"},{"district":"其他区","zipcode":"277100"}]},{"city":"淄博市","districts":[{"district":"博山区","zipcode":"255000"},{"district":"高青县","zipcode":"255000"},{"district":"桓台县","zipcode":"255000"},{"district":"临淄区","zipcode":"255000"},{"district":"沂源县","zipcode":"255000"},{"district":"张店区","zipcode":"255000"},{"district":"周村区","zipcode":"255000"},{"district":"淄川区","zipcode":"255000"},{"district":"其他区","zipcode":"255000"}]}]},{"province":"山西省","cities":[{"city":"长治市","districts":[{"district":"长治县","zipcode":"046000"},{"district":"长子县","zipcode":"046000"},{"district":"城区","zipcode":"046000"},{"district":"壶关县","zipcode":"046000"},{"district":"郊区","zipcode":"046000"},{"district":"黎城县","zipcode":"046000"},{"district":"潞城市","zipcode":"046000"},{"district":"平顺县","zipcode":"046000"},{"district":"沁县","zipcode":"046000"},{"district":"沁源县","zipcode":"046000"},{"district":"屯留县","zipcode":"046000"},{"district":"武乡县","zipcode":"046000"},{"district":"襄垣县","zipcode":"046000"},{"district":"其他区","zipcode":"046000"}]},{"city":"大同市","districts":[{"district":"城区","zipcode":"037000"},{"district":"大同县","zipcode":"037000"},{"district":"广灵县","zipcode":"037000"},{"district":"浑源县","zipcode":"037000"},{"district":"矿区","zipcode":"037000"},{"district":"灵丘县","zipcode":"037000"},{"district":"南郊区","zipcode":"037000"},{"district":"天镇县","zipcode":"037000"},{"district":"新荣区","zipcode":"037000"},{"district":"阳高县","zipcode":"037000"},{"district":"左云县","zipcode":"037000"},{"district":"其他区","zipcode":"037000"}]},{"city":"晋城市","districts":[{"district":"城区","zipcode":"048000"},{"district":"高平市","zipcode":"048000"},{"district":"陵川县","zipcode":"048000"},{"district":"沁水县","zipcode":"048000"},{"district":"阳城县","zipcode":"048000"},{"district":"泽州县","zipcode":"048000"},{"district":"其他区","zipcode":"048000"}]},{"city":"晋中市","districts":[{"district":"和顺县","zipcode":"030600"},{"district":"介休市","zipcode":"030600"},{"district":"灵石县","zipcode":"030600"},{"district":"平遥县","zipcode":"030600"},{"district":"祁县","zipcode":"030600"},{"district":"寿阳县","zipcode":"030600"},{"district":"太谷县","zipcode":"030600"},{"district":"昔阳县","zipcode":"030600"},{"district":"榆次区","zipcode":"030600"},{"district":"榆社县","zipcode":"030600"},{"district":"左权县","zipcode":"030600"},{"district":"其他区","zipcode":"030600"}]},{"city":"临汾市","districts":[{"district":"安泽县","zipcode":"041000"},{"district":"大宁县","zipcode":"041000"},{"district":"汾西县","zipcode":"041000"},{"district":"浮山县","zipcode":"041000"},{"district":"古县","zipcode":"041000"},{"district":"洪洞县","zipcode":"041000"},{"district":"侯马市","zipcode":"041000"},{"district":"霍州市","zipcode":"041000"},{"district":"吉县","zipcode":"041000"},{"district":"蒲县","zipcode":"041000"},{"district":"曲沃县","zipcode":"041000"},{"district":"隰县","zipcode":"041000"},{"district":"乡宁县","zipcode":"041000"},{"district":"襄汾县","zipcode":"041000"},{"district":"尧都区","zipcode":"041000"},{"district":"翼城县","zipcode":"041000"},{"district":"永和县","zipcode":"041000"},{"district":"其他区","zipcode":"041000"}]},{"city":"吕梁市","districts":[{"district":"方山县","zipcode":"030500"},{"district":"汾阳市","zipcode":"030500"},{"district":"交城县","zipcode":"030500"},{"district":"交口县","zipcode":"030500"},{"district":"岚县","zipcode":"030500"},{"district":"离石区","zipcode":"030500"},{"district":"临县","zipcode":"030500"},{"district":"柳林县","zipcode":"030500"},{"district":"石楼县","zipcode":"030500"},{"district":"文水县","zipcode":"030500"},{"district":"孝义市","zipcode":"030500"},{"district":"兴县","zipcode":"030500"},{"district":"中阳县","zipcode":"030500"},{"district":"其他区","zipcode":"030500"}]},{"city":"朔州市","districts":[{"district":"怀仁县","zipcode":"036000"},{"district":"平鲁区","zipcode":"036000"},{"district":"山阴县","zipcode":"036000"},{"district":"朔城区","zipcode":"036000"},{"district":"应县","zipcode":"036000"},{"district":"右玉县","zipcode":"036000"},{"district":"其他区","zipcode":"036000"}]},{"city":"太原市","districts":[{"district":"古交市","zipcode":"030000"},{"district":"尖草坪区","zipcode":"030000"},{"district":"晋源区","zipcode":"030000"},{"district":"娄烦县","zipcode":"030000"},{"district":"清徐县","zipcode":"030000"},{"district":"万柏林区","zipcode":"030000"},{"district":"小店区","zipcode":"030000"},{"district":"杏花岭区","zipcode":"030000"},{"district":"阳曲县","zipcode":"030000"},{"district":"迎泽区","zipcode":"030000"},{"district":"其他区","zipcode":"030000"}]},{"city":"忻州市","districts":[{"district":"保德县","zipcode":"034000"},{"district":"代县","zipcode":"034000"},{"district":"定襄县","zipcode":"034000"},{"district":"繁峙县","zipcode":"034000"},{"district":"河曲县","zipcode":"034000"},{"district":"静乐县","zipcode":"034000"},{"district":"岢岚县","zipcode":"034000"},{"district":"宁武县","zipcode":"034000"},{"district":"偏关县","zipcode":"034000"},{"district":"神池县","zipcode":"034000"},{"district":"五台县","zipcode":"034000"},{"district":"五寨县","zipcode":"034000"},{"district":"忻府区","zipcode":"034000"},{"district":"原平市","zipcode":"034000"},{"district":"其他区","zipcode":"034000"}]},{"city":"阳泉市","districts":[{"district":"城区","zipcode":"045000"},{"district":"郊区","zipcode":"045000"},{"district":"矿区","zipcode":"045000"},{"district":"平定县","zipcode":"045000"},{"district":"盂县","zipcode":"045000"},{"district":"其他区","zipcode":"045000"}]},{"city":"运城市","districts":[{"district":"河津市","zipcode":"044000"},{"district":"稷山县","zipcode":"044000"},{"district":"绛县","zipcode":"044000"},{"district":"临猗县","zipcode":"044000"},{"district":"平陆县","zipcode":"044000"},{"district":"芮城县","zipcode":"044000"},{"district":"万荣县","zipcode":"044000"},{"district":"闻喜县","zipcode":"044000"},{"district":"夏县","zipcode":"044000"},{"district":"新绛县","zipcode":"044000"},{"district":"盐湖区","zipcode":"044000"},{"district":"永济市","zipcode":"044000"},{"district":"垣曲县","zipcode":"044000"},{"district":"其他区","zipcode":"044000"}]}]},{"province":"陕西省","cities":[{"city":"安康市","districts":[{"district":"白河县","zipcode":"725000"},{"district":"汉滨区","zipcode":"725000"},{"district":"汉阴县","zipcode":"725000"},{"district":"岚皋县","zipcode":"725000"},{"district":"宁陕县","zipcode":"725000"},{"district":"平利县","zipcode":"725000"},{"district":"石泉县","zipcode":"725000"},{"district":"旬阳县","zipcode":"725000"},{"district":"镇坪县","zipcode":"725000"},{"district":"紫阳县","zipcode":"725000"},{"district":"其他区","zipcode":"725000"}]},{"city":"宝鸡市","districts":[{"district":"陈仓区","zipcode":"721000"},{"district":"凤县","zipcode":"721000"},{"district":"凤翔县","zipcode":"721000"},{"district":"扶风县","zipcode":"721000"},{"district":"金台区","zipcode":"721000"},{"district":"麟游县","zipcode":"721000"},{"district":"陇县","zipcode":"721000"},{"district":"眉县","zipcode":"721000"},{"district":"岐山县","zipcode":"721000"},{"district":"千阳县","zipcode":"721000"},{"district":"太白县","zipcode":"721000"},{"district":"渭滨区","zipcode":"721000"},{"district":"其他区","zipcode":"721000"}]},{"city":"汉中市","districts":[{"district":"城固县","zipcode":"723000"},{"district":"佛坪县","zipcode":"723000"},{"district":"汉台区","zipcode":"723000"},{"district":"留坝县","zipcode":"723000"},{"district":"略阳县","zipcode":"723000"},{"district":"勉县","zipcode":"723000"},{"district":"南郑县","zipcode":"723000"},{"district":"宁强县","zipcode":"723000"},{"district":"西乡县","zipcode":"723000"},{"district":"洋县","zipcode":"723000"},{"district":"镇巴县","zipcode":"723000"},{"district":"其他区","zipcode":"723000"}]},{"city":"商洛市","districts":[{"district":"丹凤县","zipcode":"726000"},{"district":"洛南县","zipcode":"726000"},{"district":"山阳县","zipcode":"726000"},{"district":"商南县","zipcode":"726000"},{"district":"商州区","zipcode":"726000"},{"district":"镇安县","zipcode":"726000"},{"district":"柞水县","zipcode":"726000"},{"district":"其他区","zipcode":"726000"}]},{"city":"铜川市","districts":[{"district":"王益区","zipcode":"727000"},{"district":"耀州区","zipcode":"727000"},{"district":"宜君县","zipcode":"727000"},{"district":"印台区","zipcode":"727000"},{"district":"其他区","zipcode":"727000"}]},{"city":"渭南市","districts":[{"district":"白水县","zipcode":"714000"},{"district":"澄城县","zipcode":"714000"},{"district":"大荔县","zipcode":"714000"},{"district":"富平县","zipcode":"714000"},{"district":"韩城市","zipcode":"714000"},{"district":"合阳县","zipcode":"714000"},{"district":"华县","zipcode":"714000"},{"district":"华阴市","zipcode":"714000"},{"district":"临渭区","zipcode":"714000"},{"district":"蒲城县","zipcode":"714000"},{"district":"潼关县","zipcode":"714000"},{"district":"其他区","zipcode":"714000"}]},{"city":"西安市","districts":[{"district":"灞桥区","zipcode":"710000"},{"district":"碑林区","zipcode":"710000"},{"district":"长安区","zipcode":"710000"},{"district":"高陵县","zipcode":"710000"},{"district":"户县","zipcode":"710000"},{"district":"蓝田县","zipcode":"710000"},{"district":"莲湖区","zipcode":"710000"},{"district":"临潼区","zipcode":"710000"},{"district":"未央区","zipcode":"710000"},{"district":"新城区","zipcode":"710000"},{"district":"阎良区","zipcode":"710000"},{"district":"雁塔区","zipcode":"710000"},{"district":"周至县","zipcode":"710000"},{"district":"其他区","zipcode":"710000"}]},{"city":"咸阳市","districts":[{"district":"彬县","zipcode":"712000"},{"district":"长武县","zipcode":"712000"},{"district":"淳化县","zipcode":"712000"},{"district":"泾阳县","zipcode":"712000"},{"district":"礼泉县","zipcode":"712000"},{"district":"乾县","zipcode":"712000"},{"district":"秦都区","zipcode":"712000"},{"district":"三原县","zipcode":"712000"},{"district":"渭城区","zipcode":"712000"},{"district":"武功县","zipcode":"712000"},{"district":"兴平市","zipcode":"712000"},{"district":"旬邑县","zipcode":"712000"},{"district":"杨凌区","zipcode":"712000"},{"district":"永寿县","zipcode":"712000"},{"district":"其他区","zipcode":"712000"}]},{"city":"延安市","districts":[{"district":"安塞县","zipcode":"716000"},{"district":"宝塔区","zipcode":"716000"},{"district":"富县","zipcode":"716000"},{"district":"甘泉县","zipcode":"716000"},{"district":"黄陵县","zipcode":"716000"},{"district":"黄龙县","zipcode":"716000"},{"district":"洛川县","zipcode":"716000"},{"district":"延长县","zipcode":"716000"},{"district":"延川县","zipcode":"716000"},{"district":"宜川县","zipcode":"716000"},{"district":"志丹县","zipcode":"716000"},{"district":"子长县","zipcode":"716000"},{"district":"其他区","zipcode":"716000"}]},{"city":"榆林市","districts":[{"district":"定边县","zipcode":"719000"},{"district":"府谷县","zipcode":"719000"},{"district":"横山县","zipcode":"719000"},{"district":"佳县","zipcode":"719000"},{"district":"靖边县","zipcode":"719000"},{"district":"米脂县","zipcode":"719000"},{"district":"清涧县","zipcode":"719000"},{"district":"神木县","zipcode":"719000"},{"district":"绥德县","zipcode":"719000"},{"district":"吴堡县","zipcode":"719000"},{"district":"榆阳区","zipcode":"719000"},{"district":"子洲县","zipcode":"719000"},{"district":"其他区","zipcode":"719000"}]}]},{"province":"四川省","cities":[{"city":"阿坝藏族羌族自治州","districts":[{"district":"阿坝县","zipcode":"624000"},{"district":"黑水县","zipcode":"624000"},{"district":"红原县","zipcode":"624000"},{"district":"金川县","zipcode":"624000"},{"district":"九寨沟县","zipcode":"624000"},{"district":"理县","zipcode":"624000"},{"district":"马尔康县","zipcode":"624000"},{"district":"茂县","zipcode":"624000"},{"district":"壤塘县","zipcode":"624000"},{"district":"若尔盖县","zipcode":"624000"},{"district":"松潘县","zipcode":"624000"},{"district":"汶川县","zipcode":"624000"},{"district":"小金县","zipcode":"624000"},{"district":"其他区","zipcode":"624000"}]},{"city":"巴中市","districts":[{"district":"巴州区","zipcode":"636600"},{"district":"南江县","zipcode":"636600"},{"district":"平昌县","zipcode":"636600"},{"district":"通江县","zipcode":"636600"},{"district":"其他区","zipcode":"636600"}]},{"city":"成都市","districts":[{"district":"成华区","zipcode":"610000"},{"district":"崇州市","zipcode":"610000"},{"district":"大邑县","zipcode":"610000"},{"district":"都江堰市","zipcode":"610000"},{"district":"金牛区","zipcode":"610000"},{"district":"金堂县","zipcode":"610000"},{"district":"锦江区","zipcode":"610000"},{"district":"龙泉驿区","zipcode":"610000"},{"district":"彭州市","zipcode":"610000"},{"district":"郫县","zipcode":"610000"},{"district":"蒲江县","zipcode":"610000"},{"district":"青白江区","zipcode":"610000"},{"district":"青羊区","zipcode":"610000"},{"district":"邛崃市","zipcode":"610000"},{"district":"双流县","zipcode":"610000"},{"district":"温江区","zipcode":"610000"},{"district":"武侯区","zipcode":"610000"},{"district":"新都区","zipcode":"610000"},{"district":"新津县","zipcode":"610000"},{"district":"其他区","zipcode":"610000"}]},{"city":"达州市","districts":[{"district":"达县","zipcode":"635000"},{"district":"大竹县","zipcode":"635000"},{"district":"开江县","zipcode":"635000"},{"district":"渠县","zipcode":"635000"},{"district":"通川区","zipcode":"635000"},{"district":"万源市","zipcode":"635000"},{"district":"宣汉县","zipcode":"635000"},{"district":"其他区","zipcode":"635000"}]},{"city":"德阳市","districts":[{"district":"广汉市","zipcode":"618000"},{"district":"旌阳区","zipcode":"618000"},{"district":"罗江县","zipcode":"618000"},{"district":"绵竹市","zipcode":"618000"},{"district":"什邡市","zipcode":"618000"},{"district":"中江县","zipcode":"618000"},{"district":"其他区","zipcode":"618000"}]},{"city":"甘孜藏族自治州","districts":[{"district":"巴塘县","zipcode":"626000"},{"district":"白玉县","zipcode":"626000"},{"district":"丹巴县","zipcode":"626000"},{"district":"道孚县","zipcode":"626000"},{"district":"稻城县","zipcode":"626000"},{"district":"得荣县","zipcode":"626000"},{"district":"德格县","zipcode":"626000"},{"district":"甘孜县","zipcode":"626000"},{"district":"九龙县","zipcode":"626000"},{"district":"康定县","zipcode":"626000"},{"district":"理塘县","zipcode":"626000"},{"district":"泸定县","zipcode":"626000"},{"district":"炉霍县","zipcode":"626000"},{"district":"色达县","zipcode":"626000"},{"district":"石渠县","zipcode":"626000"},{"district":"乡城县","zipcode":"626000"},{"district":"新龙县","zipcode":"626000"},{"district":"雅江县","zipcode":"626000"},{"district":"其他区","zipcode":"626000"}]},{"city":"广安市","districts":[{"district":"广安区","zipcode":"638500"},{"district":"华蓥市","zipcode":"638500"},{"district":"邻水县","zipcode":"638500"},{"district":"武胜县","zipcode":"638500"},{"district":"岳池县","zipcode":"638500"},{"district":"其他区","zipcode":"638500"}]},{"city":"广元市","districts":[{"district":"苍溪县","zipcode":"628000"},{"district":"朝天区","zipcode":"628000"},{"district":"剑阁县","zipcode":"628000"},{"district":"利州区","zipcode":"628000"},{"district":"青川县","zipcode":"628000"},{"district":"旺苍县","zipcode":"628000"},{"district":"元坝区","zipcode":"628000"},{"district":"其他区","zipcode":"628000"}]},{"city":"乐山市","districts":[{"district":"峨边彝族自治县","zipcode":"614000"},{"district":"峨眉山市","zipcode":"614000"},{"district":"夹江县","zipcode":"614000"},{"district":"犍为县","zipcode":"614000"},{"district":"金口河区","zipcode":"614000"},{"district":"井研县","zipcode":"614000"},{"district":"马边彝族自治县","zipcode":"614000"},{"district":"沐川县","zipcode":"614000"},{"district":"沙湾区","zipcode":"614000"},{"district":"市中区","zipcode":"614000"},{"district":"五通桥区","zipcode":"614000"},{"district":"其他区","zipcode":"614000"}]},{"city":"凉山彝族自治州","districts":[{"district":"布拖县","zipcode":"615000"},{"district":"德昌县","zipcode":"615000"},{"district":"甘洛县","zipcode":"615000"},{"district":"会东县","zipcode":"615000"},{"district":"会理县","zipcode":"615000"},{"district":"金阳县","zipcode":"615000"},{"district":"雷波县","zipcode":"615000"},{"district":"美姑县","zipcode":"615000"},{"district":"冕宁县","zipcode":"615000"},{"district":"木里藏族自治县","zipcode":"615000"},{"district":"宁南县","zipcode":"615000"},{"district":"普格县","zipcode":"615000"},{"district":"西昌市","zipcode":"615000"},{"district":"喜德县","zipcode":"615000"},{"district":"盐源县","zipcode":"615000"},{"district":"越西县","zipcode":"615000"},{"district":"昭觉县","zipcode":"615000"},{"district":"其他区","zipcode":"615000"}]},{"city":"泸州市","districts":[{"district":"古蔺县","zipcode":"646000 "},{"district":"合江县","zipcode":"646000 "},{"district":"江阳区","zipcode":"646000 "},{"district":"龙马潭区","zipcode":"646000 "},{"district":"泸县","zipcode":"646000 "},{"district":"纳溪区","zipcode":"646000 "},{"district":"叙永县","zipcode":"646000 "},{"district":"其他区","zipcode":"646000 "}]},{"city":"眉山市","districts":[{"district":"丹棱县","zipcode":"620000"},{"district":"东坡区","zipcode":"620000"},{"district":"洪雅县","zipcode":"620000"},{"district":"彭山县","zipcode":"620000"},{"district":"青神县","zipcode":"620000"},{"district":"仁寿县","zipcode":"620000"},{"district":"其他区","zipcode":"620000"}]},{"city":"绵阳市","districts":[{"district":"安县","zipcode":"621000"},{"district":"北川羌族自治县","zipcode":"621000"},{"district":"涪城区","zipcode":"621000"},{"district":"江油市","zipcode":"621000"},{"district":"平武县","zipcode":"621000"},{"district":"三台县","zipcode":"621000"},{"district":"盐亭县","zipcode":"621000"},{"district":"游仙区","zipcode":"621000"},{"district":"梓潼县","zipcode":"621000"},{"district":"其他区","zipcode":"621000"}]},{"city":"内江市","districts":[{"district":"东兴区","zipcode":"641000"},{"district":"隆昌县","zipcode":"641000"},{"district":"市中区","zipcode":"641000"},{"district":"威远县","zipcode":"641000"},{"district":"资中县","zipcode":"641000"},{"district":"其他区","zipcode":"641000"}]},{"city":"南充市","districts":[{"district":"高坪区","zipcode":"637000"},{"district":"嘉陵区","zipcode":"637000"},{"district":"阆中市","zipcode":"637000"},{"district":"南部县","zipcode":"637000"},{"district":"蓬安县","zipcode":"637000"},{"district":"顺庆区","zipcode":"637000"},{"district":"西充县","zipcode":"637000"},{"district":"仪陇县","zipcode":"637000"},{"district":"营山县","zipcode":"637000"},{"district":"其他区","zipcode":"637000"}]},{"city":"攀枝花市","districts":[{"district":"东区","zipcode":"617000"},{"district":"米易县","zipcode":"617000"},{"district":"仁和区","zipcode":"617000"},{"district":"西区","zipcode":"617000"},{"district":"盐边县","zipcode":"617000"},{"district":"其他区","zipcode":"617000"}]},{"city":"遂宁市","districts":[{"district":"安居区","zipcode":"629000"},{"district":"船山区","zipcode":"629000"},{"district":"大英县","zipcode":"629000"},{"district":"蓬溪县","zipcode":"629000"},{"district":"射洪县","zipcode":"629000"},{"district":"其他区","zipcode":"629000"}]},{"city":"雅安市","districts":[{"district":"宝兴县","zipcode":"625000"},{"district":"汉源县","zipcode":"625000"},{"district":"芦山县","zipcode":"625000"},{"district":"名山县","zipcode":"625000"},{"district":"石棉县","zipcode":"625000"},{"district":"天全县","zipcode":"625000"},{"district":"荥经县","zipcode":"625000"},{"district":"雨城区","zipcode":"625000"},{"district":"其他区","zipcode":"625000"}]},{"city":"宜宾市","districts":[{"district":"长宁县","zipcode":"644000"},{"district":"翠屏区","zipcode":"644000"},{"district":"高县","zipcode":"644000"},{"district":"珙县","zipcode":"644000"},{"district":"江安县","zipcode":"644000"},{"district":"筠连县","zipcode":"644000"},{"district":"南溪县","zipcode":"644000"},{"district":"屏山县","zipcode":"644000"},{"district":"兴文县","zipcode":"644000"},{"district":"宜宾县","zipcode":"644000"},{"district":"其他区","zipcode":"644000"}]},{"city":"资阳市","districts":[{"district":"安岳县","zipcode":"641300"},{"district":"简阳市","zipcode":"641300"},{"district":"乐至县","zipcode":"641300"},{"district":"雁江区","zipcode":"641300"},{"district":"其他区","zipcode":"641300"}]},{"city":"自贡市","districts":[{"district":"大安区","zipcode":"643000"},{"district":"富顺县","zipcode":"643000"},{"district":"贡井区","zipcode":"643000"},{"district":"荣县","zipcode":"643000"},{"district":"沿滩区","zipcode":"643000"},{"district":"自流井区","zipcode":"643000"},{"district":"其他区","zipcode":"643000"}]}]},{"province":"西藏自治区","cities":[{"city":"阿里地区","districts":[{"district":"措勤县","zipcode":"859000"},{"district":"噶尔县","zipcode":"859000"},{"district":"改则县","zipcode":"859000"},{"district":"革吉县","zipcode":"859000"},{"district":"普兰县","zipcode":"859000"},{"district":"日土县","zipcode":"859000"},{"district":"札达县","zipcode":"859000"},{"district":"其他区","zipcode":"859000"}]},{"city":"昌都地区","districts":[{"district":"八宿县","zipcode":"854000"},{"district":"边坝县","zipcode":"854000"},{"district":"察雅县","zipcode":"854000"},{"district":"昌都县","zipcode":"854000"},{"district":"丁青县","zipcode":"854000"},{"district":"贡觉县","zipcode":"854000"},{"district":"江达县","zipcode":"854000"},{"district":"类乌齐县","zipcode":"854000"},{"district":"洛隆县","zipcode":"854000"},{"district":"芒康县","zipcode":"854000"},{"district":"左贡县","zipcode":"854000"},{"district":"其他区","zipcode":"854000"}]},{"city":"拉萨市","districts":[{"district":"达孜县","zipcode":"850000"},{"district":"当雄县","zipcode":"850000"},{"district":"堆龙德庆县","zipcode":"850000"},{"district":"林周县","zipcode":"850000"},{"district":"墨竹工卡县","zipcode":"850000"},{"district":"尼木县","zipcode":"850000"},{"district":"曲水县","zipcode":"850000"},{"district":"其他区","zipcode":"850000"}]},{"city":"林芝地区","districts":[{"district":"波密县","zipcode":"860100"},{"district":"察隅县","zipcode":"860100"},{"district":"工布江达县","zipcode":"860100"},{"district":"朗县","zipcode":"860100"},{"district":"林芝县","zipcode":"860100"},{"district":"米林县","zipcode":"860100"},{"district":"墨脱县","zipcode":"860100"},{"district":"其他区","zipcode":"860100"}]},{"city":"那曲地区","districts":[{"district":"安多县","zipcode":"852000"},{"district":"巴青县","zipcode":"852000"},{"district":"班戈县","zipcode":"852000"},{"district":"比如县","zipcode":"852000"},{"district":"嘉黎县","zipcode":"852000"},{"district":"那曲县","zipcode":"852000"},{"district":"尼玛县","zipcode":"852000"},{"district":"聂荣县","zipcode":"852000"},{"district":"申扎县","zipcode":"852000"},{"district":"索县","zipcode":"852000"},{"district":"其他区","zipcode":"852000"}]},{"city":"日喀则地区","districts":[{"district":"昂仁县","zipcode":"857000"},{"district":"白朗县","zipcode":"857000"},{"district":"定结县","zipcode":"857000"},{"district":"定日县","zipcode":"857000"},{"district":"岗巴县","zipcode":"857000"},{"district":"吉隆县","zipcode":"857000"},{"district":"江孜县","zipcode":"857000"},{"district":"康马县","zipcode":"857000"},{"district":"拉孜县","zipcode":"857000"},{"district":"南木林县","zipcode":"857000"},{"district":"聂拉木县","zipcode":"857000"},{"district":"仁布县","zipcode":"857000"},{"district":"日喀则市","zipcode":"857000"},{"district":"萨嘎县","zipcode":"857000"},{"district":"萨迦县","zipcode":"857000"},{"district":"谢通门县","zipcode":"857000"},{"district":"亚东县","zipcode":"857000"},{"district":"仲巴县","zipcode":"857000"},{"district":"其他区","zipcode":"857000"}]},{"city":"山南地区","districts":[{"district":"措美县","zipcode":"856000"},{"district":"错那县","zipcode":"856000"},{"district":"贡嘎县","zipcode":"856000"},{"district":"加查县","zipcode":"856000"},{"district":"浪卡子县","zipcode":"856000"},{"district":"隆子县","zipcode":"856000"},{"district":"洛扎县","zipcode":"856000"},{"district":"乃东县","zipcode":"856000"},{"district":"琼结县","zipcode":"856000"},{"district":"曲松县","zipcode":"856000"},{"district":"桑日县","zipcode":"856000"},{"district":"扎囊县","zipcode":"856000"},{"district":"其他区","zipcode":"856000"}]}]},{"province":"新疆维吾尔自治区","cities":[{"city":"阿克苏地区","districts":[{"district":"阿克苏市","zipcode":"843000"},{"district":"阿瓦提县","zipcode":"843000"},{"district":"拜城县","zipcode":"843000"},{"district":"柯坪县","zipcode":"843000"},{"district":"库车县","zipcode":"843000"},{"district":"沙雅县","zipcode":"843000"},{"district":"温宿县","zipcode":"843000"},{"district":"乌什县","zipcode":"843000"},{"district":"新和县","zipcode":"843000"},{"district":"其他区","zipcode":"843000"}]},{"city":"阿勒泰地区","districts":[{"district":"阿勒泰市","zipcode":"836500"},{"district":"北屯镇","zipcode":"836500"},{"district":"布尔津县","zipcode":"836500"},{"district":"福海县","zipcode":"836500"},{"district":"富蕴县","zipcode":"836500"},{"district":"哈巴河县","zipcode":"836500"},{"district":"吉木乃县","zipcode":"836500"},{"district":"青河县","zipcode":"836500"},{"district":"其他区","zipcode":"836500"}]},{"city":"巴音郭楞蒙古自治州","districts":[{"district":"博湖县","zipcode":"841000"},{"district":"和静县","zipcode":"841000"},{"district":"和硕县","zipcode":"841000"},{"district":"库尔勒市","zipcode":"841000"},{"district":"轮台县","zipcode":"841000"},{"district":"且末县","zipcode":"841000"},{"district":"若羌县","zipcode":"841000"},{"district":"尉犁县","zipcode":"841000"},{"district":"焉耆回族自治县","zipcode":"841000"},{"district":"其他区","zipcode":"841000"}]},{"city":"博尔塔拉蒙古自治州","districts":[{"district":"博乐市","zipcode":"833400"},{"district":"精河县","zipcode":"833400"},{"district":"温泉县","zipcode":"833400"},{"district":"其他区","zipcode":"833400"}]},{"city":"昌吉回族自治州","districts":[{"district":"昌吉市","zipcode":"831100"},{"district":"阜康市","zipcode":"831100"},{"district":"呼图壁县","zipcode":"831100"},{"district":"吉木萨尔县","zipcode":"831100"},{"district":"玛纳斯县","zipcode":"831100"},{"district":"木垒哈萨克自治县","zipcode":"831100"},{"district":"奇台县","zipcode":"831100"},{"district":"五家渠市","zipcode":"831100"},{"district":"其他区","zipcode":"831100"}]},{"city":"哈密地区","districts":[{"district":"巴里坤哈萨克自治县","zipcode":"839000"},{"district":"哈密市","zipcode":"839000"},{"district":"伊吾县","zipcode":"839000"},{"district":"其他区","zipcode":"839000"}]},{"city":"和田地区","districts":[{"district":"策勒县","zipcode":"848000"},{"district":"和田市","zipcode":"848000"},{"district":"和田县","zipcode":"848000"},{"district":"洛浦县","zipcode":"848000"},{"district":"民丰县","zipcode":"848000"},{"district":"墨玉县","zipcode":"848000"},{"district":"皮山县","zipcode":"848000"},{"district":"于田县","zipcode":"848000"},{"district":"其他区","zipcode":"848000"}]},{"city":"喀什地区","districts":[{"district":"巴楚县","zipcode":"844000"},{"district":"伽师县","zipcode":"844000"},{"district":"喀什市","zipcode":"844000"},{"district":"麦盖提县","zipcode":"844000"},{"district":"莎车县","zipcode":"844000"},{"district":"疏附县","zipcode":"844000"},{"district":"疏勒县","zipcode":"844000"},{"district":"塔什库尔干塔吉克自治县","zipcode":"844000"},{"district":"叶城县","zipcode":"844000"},{"district":"英吉沙县","zipcode":"844000"},{"district":"岳普湖县","zipcode":"844000"},{"district":"泽普县","zipcode":"844000"},{"district":"其他区","zipcode":"844000"}]},{"city":"克拉玛依市","districts":[{"district":"白碱滩区","zipcode":"834000"},{"district":"独山子区","zipcode":"834000"},{"district":"克拉玛依区","zipcode":"834000"},{"district":"乌尔禾区","zipcode":"834000"},{"district":"其他区","zipcode":"834000"}]},{"city":"克孜勒苏柯尔克孜自治州","districts":[{"district":"阿合奇县","zipcode":"845350"},{"district":"阿克陶县","zipcode":"845350"},{"district":"阿图什市","zipcode":"845350"},{"district":"乌恰县","zipcode":"845350"},{"district":"其他区","zipcode":"845350"}]},{"city":"塔城地区","districts":[{"district":"额敏县","zipcode":"834700"},{"district":"和布克赛尔蒙古自治县","zipcode":"834700"},{"district":"沙湾县","zipcode":"834700"},{"district":"塔城市","zipcode":"834700"},{"district":"托里县","zipcode":"834700"},{"district":"乌苏市","zipcode":"834700"},{"district":"裕民县","zipcode":"834700"},{"district":"其他区","zipcode":"834700"}]},{"city":"吐鲁番地区","districts":[{"district":"鄯善县","zipcode":"838000"},{"district":"吐鲁番市","zipcode":"838000"},{"district":"托克逊县","zipcode":"838000"},{"district":"其他区","zipcode":"838000"}]},{"city":"乌鲁木齐市","districts":[{"district":"达坂城区","zipcode":"830000"},{"district":"米东区","zipcode":"830000"},{"district":"沙依巴克区","zipcode":"830000"},{"district":"水磨沟区","zipcode":"830000"},{"district":"天山区","zipcode":"830000"},{"district":"头屯河区","zipcode":"830000"},{"district":"乌鲁木齐县","zipcode":"830000"},{"district":"新市区","zipcode":"830000"},{"district":"其他区","zipcode":"830000"}]},{"city":"伊犁哈萨克自治州","districts":[{"district":"察布查尔锡伯自治县","zipcode":"833200"},{"district":"巩留县","zipcode":"833200"},{"district":"霍城县","zipcode":"833200"},{"district":"奎屯市","zipcode":"833200"},{"district":"尼勒克县","zipcode":"833200"},{"district":"特克斯县","zipcode":"833200"},{"district":"新源县","zipcode":"833200"},{"district":"伊宁市","zipcode":"833200"},{"district":"伊宁县","zipcode":"833200"},{"district":"昭苏县","zipcode":"833200"},{"district":"其他区","zipcode":"833200"}]}]},{"province":"云南省","cities":[{"city":"保山市","districts":[{"district":"昌宁县","zipcode":"678000"},{"district":"龙陵县","zipcode":"678000"},{"district":"隆阳区","zipcode":"678000"},{"district":"施甸县","zipcode":"678000"},{"district":"腾冲县","zipcode":"678000"},{"district":"其他区","zipcode":"678000"}]},{"city":"楚雄彝族自治州","districts":[{"district":"楚雄市","zipcode":"675000"},{"district":"大姚县","zipcode":"675000"},{"district":"禄丰县","zipcode":"675000"},{"district":"牟定县","zipcode":"675000"},{"district":"南华县","zipcode":"675000"},{"district":"双柏县","zipcode":"675000"},{"district":"武定县","zipcode":"675000"},{"district":"姚安县","zipcode":"675000"},{"district":"永仁县","zipcode":"675000"},{"district":"元谋县","zipcode":"675000"},{"district":"其他区","zipcode":"675000"}]},{"city":"大理白族自治州","districts":[{"district":"宾川县","zipcode":"671000"},{"district":"大理市","zipcode":"671000"},{"district":"洱源县","zipcode":"671000"},{"district":"鹤庆县","zipcode":"671000"},{"district":"剑川县","zipcode":"671000"},{"district":"弥渡县","zipcode":"671000"},{"district":"南涧彝族自治县","zipcode":"671000"},{"district":"巍山彝族回族自治县","zipcode":"671000"},{"district":"祥云县","zipcode":"671000"},{"district":"漾濞彝族自治县","zipcode":"671000"},{"district":"永平县","zipcode":"671000"},{"district":"云龙县","zipcode":"671000"},{"district":"其他区","zipcode":"671000"}]},{"city":"德宏傣族景颇族自治州","districts":[{"district":"梁河县","zipcode":"678400"},{"district":"陇川县","zipcode":"678400"},{"district":"潞西市","zipcode":"678400"},{"district":"瑞丽市","zipcode":"678400"},{"district":"盈江县","zipcode":"678400"},{"district":"其他区","zipcode":"678400"}]},{"city":"迪庆藏族自治州","districts":[{"district":"德钦县","zipcode":"674400"},{"district":"维西傈僳族自治县","zipcode":"674400"},{"district":"香格里拉县","zipcode":"674400"},{"district":"其他区","zipcode":"674400"}]},{"city":"红河哈尼族彝族自治州","districts":[{"district":"个旧市","zipcode":"661400"},{"district":"河口瑶族自治县","zipcode":"661400"},{"district":"红河县","zipcode":"661400"},{"district":"建水县","zipcode":"661400"},{"district":"金平苗族瑶族傣族自治县","zipcode":"661400"},{"district":"开远市","zipcode":"661400"},{"district":"泸西县","zipcode":"661400"},{"district":"绿春县","zipcode":"661400"},{"district":"蒙自县","zipcode":"661400"},{"district":"弥勒县","zipcode":"661400"},{"district":"屏边苗族自治县","zipcode":"661400"},{"district":"石屏县","zipcode":"661400"},{"district":"元阳县","zipcode":"661400"},{"district":"其他区","zipcode":"661400"}]},{"city":"昆明市","districts":[{"district":"安宁市","zipcode":"650000"},{"district":"呈贡县","zipcode":"650000"},{"district":"东川区","zipcode":"650000"},{"district":"富民县","zipcode":"650000"},{"district":"官渡区","zipcode":"650000"},{"district":"晋宁县","zipcode":"650000"},{"district":"禄劝彝族苗族自治县","zipcode":"650000"},{"district":"盘龙区","zipcode":"650000"},{"district":"石林彝族自治县","zipcode":"650000"},{"district":"嵩明县","zipcode":"650000"},{"district":"五华区","zipcode":"650000"},{"district":"西山区","zipcode":"650000"},{"district":"寻甸回族彝族自治县","zipcode":"650000"},{"district":"宜良县","zipcode":"650000"},{"district":"其他区","zipcode":"650000"}]},{"city":"丽江市","districts":[{"district":"古城区","zipcode":"674100"},{"district":"华坪县","zipcode":"674100"},{"district":"宁蒗彝族自治县","zipcode":"674100"},{"district":"永胜县","zipcode":"674100"},{"district":"玉龙纳西族自治县","zipcode":"674100"},{"district":"其他区","zipcode":"674100"}]},{"city":"临沧市","districts":[{"district":"沧源佤族自治县","zipcode":"677000"},{"district":"凤庆县","zipcode":"677000"},{"district":"耿马傣族佤族自治县","zipcode":"677000"},{"district":"临翔区","zipcode":"677000"},{"district":"双江拉祜族佤族布朗族傣族自治县","zipcode":"677000"},{"district":"永德县","zipcode":"677000"},{"district":"云县","zipcode":"677000"},{"district":"镇康县","zipcode":"677000"},{"district":"其他区","zipcode":"677000"}]},{"city":"怒江傈僳族自治州","districts":[{"district":"福贡县","zipcode":"673100"},{"district":"贡山独龙族怒族自治县","zipcode":"673100"},{"district":"兰坪白族普米族自治县","zipcode":"673100"},{"district":"泸水县","zipcode":"673100"},{"district":"其他区","zipcode":"673100"}]},{"city":"普洱市","districts":[{"district":"江城哈尼族彝族自治县","zipcode":"665000"},{"district":"景东彝族自治县","zipcode":"665000"},{"district":"景谷傣族彝族自治县","zipcode":"665000"},{"district":"澜沧拉祜族自治县","zipcode":"665000"},{"district":"孟连傣族拉祜族佤族自治县","zipcode":"665000"},{"district":"墨江哈尼族自治县","zipcode":"665000"},{"district":"宁洱哈尼族彝族自治县","zipcode":"665000"},{"district":"思茅区","zipcode":"665000"},{"district":"西盟佤族自治县","zipcode":"665000"},{"district":"镇沅彝族哈尼族拉祜族自治县","zipcode":"665000"},{"district":"其他区","zipcode":"665000"}]},{"city":"曲靖市","districts":[{"district":"富源县","zipcode":"655000"},{"district":"会泽县","zipcode":"655000"},{"district":"陆良县","zipcode":"655000"},{"district":"罗平县","zipcode":"655000"},{"district":"马龙县","zipcode":"655000"},{"district":"麒麟区","zipcode":"655000"},{"district":"师宗县","zipcode":"655000"},{"district":"宣威市","zipcode":"655000"},{"district":"沾益县","zipcode":"655000"},{"district":"其他区","zipcode":"655000"}]},{"city":"文山壮族苗族自治州","districts":[{"district":"富宁县","zipcode":"663000"},{"district":"广南县","zipcode":"663000"},{"district":"麻栗坡县","zipcode":"663000"},{"district":"马关县","zipcode":"663000"},{"district":"丘北县","zipcode":"663000"},{"district":"文山县","zipcode":"663000"},{"district":"西畴县","zipcode":"663000"},{"district":"砚山县","zipcode":"663000"},{"district":"其他区","zipcode":"663000"}]},{"city":"西双版纳傣族自治州","districts":[{"district":"景洪市","zipcode":"666100"},{"district":"勐海县","zipcode":"666100"},{"district":"勐腊县","zipcode":"666100"},{"district":"其他区","zipcode":"666100"}]},{"city":"玉溪市","districts":[{"district":"澄江县","zipcode":"653100"},{"district":"峨山彝族自治县","zipcode":"653100"},{"district":"红塔区","zipcode":"653100"},{"district":"华宁县","zipcode":"653100"},{"district":"江川县","zipcode":"653100"},{"district":"通海县","zipcode":"653100"},{"district":"新平彝族傣族自治县","zipcode":"653100"},{"district":"易门县","zipcode":"653100"},{"district":"元江哈尼族彝族傣族自治县","zipcode":"653100"},{"district":"其他区","zipcode":"653100"}]},{"city":"昭通市","districts":[{"district":"大关县","zipcode":"657000"},{"district":"鲁甸县","zipcode":"657000"},{"district":"巧家县","zipcode":"657000"},{"district":"水富县","zipcode":"657000"},{"district":"绥江县","zipcode":"657000"},{"district":"威信县","zipcode":"657000"},{"district":"盐津县","zipcode":"657000"},{"district":"彝良县","zipcode":"657000"},{"district":"永善县","zipcode":"657000"},{"district":"昭阳区","zipcode":"657000"},{"district":"镇雄县","zipcode":"657000"},{"district":"其他区","zipcode":"657000"}]}]},{"province":"浙江省","cities":[{"city":"杭州市","districts":[{"district":"滨江区","zipcode":"310000"},{"district":"淳安县","zipcode":"310000"},{"district":"富阳市","zipcode":"310000"},{"district":"拱墅区","zipcode":"310000"},{"district":"建德市","zipcode":"310000"},{"district":"江干区","zipcode":"310000"},{"district":"临安市","zipcode":"310000"},{"district":"上城区","zipcode":"310000"},{"district":"桐庐县","zipcode":"310000"},{"district":"西湖区","zipcode":"310000"},{"district":"下城区","zipcode":"310000"},{"district":"萧山区","zipcode":"310000"},{"district":"余杭区","zipcode":"310000"},{"district":"其他区","zipcode":"310000"}]},{"city":"湖州市","districts":[{"district":"安吉县","zipcode":"313000"},{"district":"长兴县","zipcode":"313000"},{"district":"德清县","zipcode":"313000"},{"district":"南浔区","zipcode":"313000"},{"district":"吴兴区","zipcode":"313000"},{"district":"其他区","zipcode":"313000"}]},{"city":"嘉兴市","districts":[{"district":"海宁市","zipcode":"314000"},{"district":"海盐县","zipcode":"314000"},{"district":"嘉善县","zipcode":"314000"},{"district":"南湖区","zipcode":"314000"},{"district":"平湖市","zipcode":"314000"},{"district":"桐乡市","zipcode":"314000"},{"district":"秀洲区","zipcode":"314000"},{"district":"其他区","zipcode":"314000"}]},{"city":"金华市","districts":[{"district":"东阳市","zipcode":"321000"},{"district":"金东区","zipcode":"321000"},{"district":"兰溪市","zipcode":"321000"},{"district":"磐安县","zipcode":"321000"},{"district":"浦江县","zipcode":"321000"},{"district":"武义县","zipcode":"321000"},{"district":"婺城区","zipcode":"321000"},{"district":"义乌市","zipcode":"321000"},{"district":"永康市","zipcode":"321000"},{"district":"其他区","zipcode":"321000"}]},{"city":"丽水市","districts":[{"district":"缙云县","zipcode":"323000"},{"district":"景宁畲族自治县","zipcode":"323000"},{"district":"莲都区","zipcode":"323000"},{"district":"龙泉市","zipcode":"323000"},{"district":"青田县","zipcode":"323000"},{"district":"庆元县","zipcode":"323000"},{"district":"松阳县","zipcode":"323000"},{"district":"遂昌县","zipcode":"323000"},{"district":"云和县","zipcode":"323000"},{"district":"其他区","zipcode":"323000"}]},{"city":"宁波市","districts":[{"district":"北仑区","zipcode":"315000"},{"district":"慈溪市","zipcode":"315000"},{"district":"奉化市","zipcode":"315000"},{"district":"海曙区","zipcode":"315000"},{"district":"江北区","zipcode":"315000"},{"district":"江东区","zipcode":"315000"},{"district":"宁海县","zipcode":"315000"},{"district":"象山县","zipcode":"315000"},{"district":"鄞州区","zipcode":"315000"},{"district":"余姚市","zipcode":"315000"},{"district":"镇海区","zipcode":"315000"},{"district":"其他区","zipcode":"315000"}]},{"city":"衢州市","districts":[{"district":"常山县","zipcode":"324000"},{"district":"江山市","zipcode":"324000"},{"district":"开化县","zipcode":"324000"},{"district":"柯城区","zipcode":"324000"},{"district":"龙游县","zipcode":"324000"},{"district":"衢江区","zipcode":"324000"},{"district":"其他区","zipcode":"324000"}]},{"city":"绍兴市","districts":[{"district":"上虞市","zipcode":"312000"},{"district":"绍兴县","zipcode":"312000"},{"district":"嵊州市","zipcode":"312000"},{"district":"新昌县","zipcode":"312000"},{"district":"越城区","zipcode":"312000"},{"district":"诸暨市","zipcode":"312000"},{"district":"其他区","zipcode":"312000"}]},{"city":"台州市","districts":[{"district":"黄岩区","zipcode":"318000"},{"district":"椒江区","zipcode":"318000"},{"district":"临海市","zipcode":"318000"},{"district":"路桥区","zipcode":"318000"},{"district":"三门县","zipcode":"318000"},{"district":"天台县","zipcode":"318000"},{"district":"温岭市","zipcode":"318000"},{"district":"仙居县","zipcode":"318000"},{"district":"玉环县","zipcode":"318000"},{"district":"其他区","zipcode":"318000"}]},{"city":"温州市","districts":[{"district":"苍南县","zipcode":"325000"},{"district":"洞头县","zipcode":"325000"},{"district":"乐清市","zipcode":"325000"},{"district":"龙湾区","zipcode":"325000"},{"district":"鹿城区","zipcode":"325000"},{"district":"瓯海区","zipcode":"325000"},{"district":"平阳县","zipcode":"325000"},{"district":"瑞安市","zipcode":"325000"},{"district":"泰顺县","zipcode":"325000"},{"district":"文成县","zipcode":"325000"},{"district":"永嘉县","zipcode":"325000"},{"district":"其他区","zipcode":"325000"}]},{"city":"舟山市","districts":[{"district":"岱山县","zipcode":"316000"},{"district":"定海区","zipcode":"316000"},{"district":"普陀区","zipcode":"316000"},{"district":"嵊泗县","zipcode":"316000"},{"district":"其他区","zipcode":"316000"}]}]}]